Zipcode,ZipCodeType,City,State,LocationType,Lat,Long,Region,TotalWages,Notes
30701,STANDARD,CALHOUN,GA,PRIMARY,34.49,-84.94,Calhoun,476924581,
30703,PO BOX,CALHOUN,GA,PRIMARY,34.49,-84.94,Calhoun,34466609,
30705,STANDARD,CHATSWORTH,GA,PRIMARY,34.77,-84.77,Chatsworth,380152185,
30707,STANDARD,CHICKAMAUGA,GA,PRIMARY,34.87,-85.29,Chickamauga,205916459,
30708,STANDARD,CISCO,GA,PRIMARY,34.95,-84.73,Cisco,,
30710,STANDARD,COHUTTA,GA,PRIMARY,34.95,-84.95,Cohutta,99678926,
30711,STANDARD,CRANDALL,GA,PRIMARY,34.93,-84.76,Crandall,39044255,
30719,PO BOX,DALTON,GA,PRIMARY,34.76,-84.97,Dalton,17826014,
30720,STANDARD,DALTON,GA,PRIMARY,34.76,-84.97,Dalton,370468823,
30721,STANDARD,DALTON,GA,PRIMARY,34.76,-84.97,Dalton,534687864,
30722,PO BOX,DALTON,GA,PRIMARY,34.76,-84.97,Dalton,33156912,
30724,PO BOX,ETON,GA,PRIMARY,34.82,-84.76,Eton,10378379,
30725,STANDARD,FLINTSTONE,GA,PRIMARY,34.92,-85.35,Flintstone,67661917,
30726,PO BOX,GRAYSVILLE,GA,PRIMARY,34.89,-85.12,Graysville,,
30728,STANDARD,LA FAYETTE,GA,PRIMARY,34.70,-85.28,La Fayette,205360172,
30730,STANDARD,LYERLY,GA,PRIMARY,34.40,-85.40,Lyerly,21031198,
30731,STANDARD,MENLO,GA,PRIMARY,34.48,-85.47,Menlo,26769530,
30732,PO BOX,OAKMAN,GA,PRIMARY,34.56,-84.71,Oakman,,
30733,STANDARD,PLAINVILLE,GA,PRIMARY,34.40,-85.03,Plainville,23478174,
30734,STANDARD,RANGER,GA,PRIMARY,34.50,-84.71,Ranger,34982099,
30735,STANDARD,RESACA,GA,PRIMARY,34.58,-84.94,Resaca,72135699,
30736,STANDARD,RINGGOLD,GA,PRIMARY,34.91,-85.10,Ringgold,656078688,
30738,STANDARD,RISING FAWN,GA,PRIMARY,34.81,-85.50,Rising Fawn,46845711,
30739,STANDARD,ROCK SPRING,GA,PRIMARY,34.81,-85.24,Rock Spring,77456377,
30740,STANDARD,ROCKY FACE,GA,PRIMARY,34.75,-85.08,Rocky Face,152639308,
30741,STANDARD,ROSSVILLE,GA,PRIMARY,34.97,-85.28,Rossville,298128854,
30742,STANDARD,FORT OGLETHORPE,GA,PRIMARY,34.92,-85.25,Fort Oglethorpe,78485719,
30746,STANDARD,SUGAR VALLEY,GA,PRIMARY,34.55,-85.03,Sugar Valley,21124471,
30747,STANDARD,SUMMERVILLE,GA,PRIMARY,34.47,-85.34,Summerville,156145478,
30751,PO BOX,TENNGA,GA,PRIMARY,34.98,-84.72,Tennga,,
30752,STANDARD,TRENTON,GA,PRIMARY,34.87,-85.50,Trenton,117344985,
30753,STANDARD,TRION,GA,PRIMARY,34.54,-85.31,Trion,72299993,
30755,STANDARD,TUNNEL HILL,GA,PRIMARY,34.84,-85.04,Tunnel Hill,114025326,
30756,PO BOX,VARNELL,GA,PRIMARY,34.90,-84.97,Varnell,,
30757,STANDARD,WILDWOOD,GA,PRIMARY,34.96,-85.41,Wildwood,19741513,
30750,STANDARD,LOOKOUT MOUNTAIN,GA,PRIMARY,34.96,-85.36,Lookout Mountain,62654704,
31001,STANDARD,ABBEVILLE,GA,PRIMARY,31.99,-83.30,Abbeville,23013409,
31620,STANDARD,ADEL,GA,PRIMARY,31.13,-83.42,Adel,108728284,
31002,STANDARD,ADRIAN,GA,PRIMARY,32.52,-82.59,Adrian,27756271,
30410,STANDARD,AILEY,GA,PRIMARY,32.18,-82.57,Ailey,18863859,
30411,STANDARD,ALAMO,GA,PRIMARY,32.14,-82.77,Alamo,24386105,
31622,STANDARD,ALAPAHA,GA,PRIMARY,31.38,-83.22,Alapaha,21148432,
31701,STANDARD,ALBANY,GA,PRIMARY,31.57,-84.17,Albany,169489087,
31702,PO BOX,ALBANY,GA,PRIMARY,31.57,-84.17,Albany,7837820,
31703,PO BOX,ALBANY,GA,PRIMARY,31.57,-84.17,Albany,9773712,
31704,UNIQUE,ALBANY,GA,PRIMARY,31.57,-84.17,Albany,,
31705,STANDARD,ALBANY,GA,PRIMARY,31.57,-84.17,Albany,290849916,
31706,PO BOX,ALBANY,GA,PRIMARY,31.57,-84.17,Albany,15268954,
31707,STANDARD,ALBANY,GA,PRIMARY,31.57,-84.17,Albany,305001041,
31708,PO BOX,ALBANY,GA,PRIMARY,31.57,-84.17,Albany,18383090,
31721,STANDARD,ALBANY,GA,PRIMARY,31.52,-84.30,Albany,396927146,
31301,STANDARD,ALLENHURST,GA,PRIMARY,31.78,-81.60,Allenhurst,43253409,
31003,PO BOX,ALLENTOWN,GA,PRIMARY,32.59,-83.22,Allentown,,
31510,STANDARD,ALMA,GA,PRIMARY,31.54,-82.47,Alma,103728705,
30412,PO BOX,ALSTON,GA,PRIMARY,32.08,-82.47,Alston,,
31512,STANDARD,AMBROSE,GA,PRIMARY,31.59,-83.01,Ambrose,21645864,
31709,STANDARD,AMERICUS,GA,PRIMARY,32.07,-84.22,Americus,193059943,
31719,STANDARD,AMERICUS,GA,PRIMARY,32.06,-84.26,Americus,82684319,
31711,STANDARD,ANDERSONVILLE,GA,PRIMARY,32.19,-84.14,Andersonville,9774218,
30802,STANDARD,APPLING,GA,PRIMARY,33.60,-82.31,Appling,105667081,
31712,STANDARD,ARABI,GA,PRIMARY,31.83,-83.73,Arabi,12695028,
31623,PO BOX,ARGYLE,GA,PRIMARY,31.07,-82.64,Argyle,,
39813,STANDARD,ARLINGTON,GA,PRIMARY,31.41,-84.69,Arlington,20678645,
31714,STANDARD,ASHBURN,GA,PRIMARY,31.70,-83.65,Ashburn,66566808,
39815,STANDARD,ATTAPULGUS,GA,PRIMARY,30.74,-84.47,Attapulgus,16962763,
30901,STANDARD,AUGUSTA,GA,PRIMARY,33.45,-81.99,Augusta,108958212,
30903,PO BOX,AUGUSTA,GA,PRIMARY,33.45,-81.99,Augusta,10546066,
30904,STANDARD,AUGUSTA,GA,PRIMARY,33.45,-81.99,Augusta,291695937,
30905,STANDARD,AUGUSTA,GA,PRIMARY,33.45,-81.99,Augusta,59145112,
30906,STANDARD,AUGUSTA,GA,PRIMARY,33.45,-81.99,Augusta,583218642,
30907,STANDARD,AUGUSTA,GA,PRIMARY,33.45,-81.99,Augusta,1003729909,
30909,STANDARD,AUGUSTA,GA,PRIMARY,33.45,-81.99,Augusta,644690925,
30912,STANDARD,AUGUSTA,GA,PRIMARY,33.45,-81.99,Augusta,,
30914,PO BOX,AUGUSTA,GA,PRIMARY,33.45,-81.99,Augusta,7884421,
30916,PO BOX,AUGUSTA,GA,PRIMARY,33.45,-81.99,Augusta,18656855,
30917,PO BOX,AUGUSTA,GA,PRIMARY,33.45,-81.99,Augusta,10806477,
30919,PO BOX,AUGUSTA,GA,PRIMARY,33.45,-81.99,Augusta,12040274,
30999,UNIQUE,AUGUSTA,GA,PRIMARY,33.45,-81.99,Augusta,,
30803,STANDARD,AVERA,GA,PRIMARY,33.19,-82.52,Avera,8761447,
31624,STANDARD,AXSON,GA,PRIMARY,31.27,-82.73,Axson,11809567,
31716,STANDARD,BACONTON,GA,PRIMARY,31.37,-84.16,Baconton,34813093,
39817,STANDARD,BAINBRIDGE,GA,PRIMARY,30.90,-84.57,Bainbridge,99751869,
39818,PO BOX,BAINBRIDGE,GA,PRIMARY,30.70,-84.67,Bainbridge,22406204,"no NWS data, "
39819,STANDARD,BAINBRIDGE,GA,PRIMARY,30.80,-84.50,Bainbridge,113385563,
31625,STANDARD,BARNEY,GA,PRIMARY,31.00,-83.51,Barney,12142370,
30413,STANDARD,BARTOW,GA,PRIMARY,32.88,-82.47,Bartow,19137594,
31720,PO BOX,BARWICK,GA,PRIMARY,30.89,-83.73,Barwick,,
31513,STANDARD,BAXLEY,GA,PRIMARY,31.76,-82.35,Baxley,158963956,
31515,PO BOX,BAXLEY,GA,PRIMARY,31.76,-82.35,Baxley,18788099,
31722,PO BOX,BERLIN,GA,PRIMARY,31.06,-83.62,Berlin,,
31516,STANDARD,BLACKSHEAR,GA,PRIMARY,31.29,-82.24,Blackshear,177048069,
39823,STANDARD,BLAKELY,GA,PRIMARY,31.33,-84.94,Blakely,95142960,
31302,STANDARD,BLOOMINGDALE,GA,PRIMARY,32.11,-81.30,Bloomingdale,119445386,
39824,STANDARD,BLUFFTON,GA,PRIMARY,31.55,-84.86,Bluffton,,
30805,STANDARD,BLYTHE,GA,PRIMARY,33.29,-82.19,Blythe,30315976,
31004,PO BOX,BOLINGBROKE,GA,PRIMARY,32.95,-83.81,Bolingbroke,,
31005,STANDARD,BONAIRE,GA,PRIMARY,32.50,-83.56,Bonaire,298618528,
30806,PO BOX,BONEVILLE,GA,PRIMARY,33.42,-82.43,Boneville,,
31626,STANDARD,BOSTON,GA,PRIMARY,30.79,-83.79,Boston,37168397,
31801,STANDARD,BOX SPRINGS,GA,PRIMARY,32.58,-84.61,Box Springs,35854863,
39825,STANDARD,BRINSON,GA,PRIMARY,30.94,-84.71,Brinson,14589089,
31518,STANDARD,BRISTOL,GA,PRIMARY,31.44,-82.21,Bristol,8138545,
39826,STANDARD,BRONWOOD,GA,PRIMARY,31.82,-84.32,Bronwood,7549480,
31727,PO BOX,BROOKFIELD,GA,PRIMARY,31.41,-83.39,Brookfield,,
30415,STANDARD,BROOKLET,GA,PRIMARY,32.38,-81.66,Brooklet,97149078,
31519,STANDARD,BROXTON,GA,PRIMARY,31.62,-82.88,Broxton,39651357,
31520,STANDARD,BRUNSWICK,GA,PRIMARY,31.15,-81.48,Brunswick,196607147,
31521,PO BOX,BRUNSWICK,GA,PRIMARY,31.14,-81.49,Brunswick,18755199,
31522,STANDARD,SAINT SIMONS ISLAND,GA,PRIMARY,31.21,-81.37,Saint Simons Island,330876029,
31523,STANDARD,BRUNSWICK,GA,PRIMARY,31.21,-81.64,Brunswick,226099291,
31524,UNIQUE,BRUNSWICK,GA,PRIMARY,31.14,-81.49,Brunswick,,
31525,STANDARD,BRUNSWICK,GA,PRIMARY,31.32,-81.53,Brunswick,394845464,
31527,STANDARD,JEKYLL ISLAND,GA,PRIMARY,31.04,-81.41,Jekyll Island,8986719,
31561,PO BOX,SEA ISLAND,GA,PRIMARY,31.18,-81.35,Sea Island,,
31803,STANDARD,BUENA VISTA,GA,PRIMARY,32.31,-84.51,Buena Vista,51017943,
31006,STANDARD,BUTLER,GA,PRIMARY,32.55,-84.23,Butler,46332718,
31007,STANDARD,BYROMVILLE,GA,PRIMARY,32.20,-83.90,Byromville,7955928,
31008,STANDARD,BYRON,GA,PRIMARY,32.65,-83.75,Byron,299346057,
31009,STANDARD,CADWELL,GA,PRIMARY,32.34,-83.04,Cadwell,15312248,
39827,STANDARD,CAIRO,GA,PRIMARY,30.97,-84.20,Cairo,39379612,
39828,STANDARD,CAIRO,GA,PRIMARY,30.87,-84.20,Cairo,152432056,
39829,PO BOX,CALVARY,GA,PRIMARY,30.72,-84.34,Calvary,,"no NWS data, "
30807,PO BOX,CAMAK,GA,PRIMARY,33.45,-82.64,Camak,,
31730,STANDARD,CAMILLA,GA,PRIMARY,31.22,-84.21,Camilla,100359079,
31804,STANDARD,CATAULA,GA,PRIMARY,32.66,-84.88,Cataula,118477225,
31627,PO BOX,CECIL,GA,PRIMARY,31.04,-83.39,Cecil,,
39832,PO BOX,CEDAR SPRINGS,GA,PRIMARY,31.18,-85.03,Cedar Springs,,"no NWS data, "
31011,STANDARD,CHAUNCEY,GA,PRIMARY,32.10,-83.06,Chauncey,9249513,
31012,STANDARD,CHESTER,GA,PRIMARY,32.39,-83.15,Chester,14522293,
31733,STANDARD,CHULA,GA,PRIMARY,31.54,-83.54,Chula,22288760,
30414,PO BOX,BELLVILLE,GA,PRIMARY,32.15,-81.97,Bellville,,
30417,STANDARD,CLAXTON,GA,PRIMARY,32.16,-81.90,Claxton,102717818,
30438,PO BOX,MANASSAS,GA,PRIMARY,32.16,-82.02,Manassas,,
39834,STANDARD,CLIMAX,GA,PRIMARY,30.89,-84.44,Climax,26006324,
31013,PO BOX,CLINCHFIELD,GA,PRIMARY,32.35,-83.70,Clinchfield,,
31303,STANDARD,CLYO,GA,PRIMARY,32.48,-81.26,Clyo,31669671,
31735,STANDARD,COBB,GA,PRIMARY,31.96,-83.96,Cobb,9832523,
30420,STANDARD,COBBTOWN,GA,PRIMARY,32.28,-82.13,Cobbtown,17334836,
31014,STANDARD,COCHRAN,GA,PRIMARY,32.38,-83.35,Cochran,152266470,
39836,STANDARD,COLEMAN,GA,PRIMARY,31.66,-84.87,Coleman,,
30421,STANDARD,COLLINS,GA,PRIMARY,32.18,-82.10,Collins,28360714,
39837,STANDARD,COLQUITT,GA,PRIMARY,31.15,-84.67,Colquitt,62478627,
31829,STANDARD,UPATOI,GA,PRIMARY,32.56,-84.74,Upatoi,34182684,
31901,STANDARD,COLUMBUS,GA,PRIMARY,32.51,-84.87,Columbus,69003087,
31902,PO BOX,COLUMBUS,GA,PRIMARY,32.51,-84.87,Columbus,18559248,
31903,STANDARD,COLUMBUS,GA,PRIMARY,32.51,-84.87,Columbus,143736772,
31904,STANDARD,COLUMBUS,GA,PRIMARY,32.51,-84.87,Columbus,548169320,
31905,STANDARD,FORT BENNING,GA,PRIMARY,32.39,-84.87,Fort Benning,123712144,
31906,STANDARD,COLUMBUS,GA,PRIMARY,32.51,-84.87,Columbus,298272637,
31907,STANDARD,COLUMBUS,GA,PRIMARY,32.51,-84.87,Columbus,671965907,
31908,PO BOX,COLUMBUS,GA,PRIMARY,32.51,-84.87,Columbus,18813637,
31909,STANDARD,COLUMBUS,GA,PRIMARY,32.51,-84.87,Columbus,596204109,
31914,PO BOX,COLUMBUS,GA,PRIMARY,32.51,-84.87,Columbus,,
31917,PO BOX,COLUMBUS,GA,PRIMARY,32.51,-84.87,Columbus,10002902,
31993,UNIQUE,COLUMBUS,GA,PRIMARY,32.51,-84.87,Columbus,,
31995,PO BOX,FORT BENNING,GA,PRIMARY,32.39,-84.87,Fort Benning,,
31997,UNIQUE,COLUMBUS,GA,PRIMARY,32.51,-84.87,Columbus,,
31998,UNIQUE,COLUMBUS,GA,PRIMARY,32.51,-84.87,Columbus,,
31999,UNIQUE,COLUMBUS,GA,PRIMARY,32.51,-84.87,Columbus,,
31738,STANDARD,COOLIDGE,GA,PRIMARY,31.01,-83.86,Coolidge,25871224,
31010,PO BOX,CORDELE,GA,PRIMARY,31.96,-83.77,Cordele,20588039,
31015,STANDARD,CORDELE,GA,PRIMARY,31.96,-83.77,Cordele,189359161,
31304,PO BOX,CRESCENT,GA,PRIMARY,31.50,-81.36,Crescent,7268836,
31016,STANDARD,CULLODEN,GA,PRIMARY,32.86,-84.09,Culloden,20651832,
31805,STANDARD,CUSSETA,GA,PRIMARY,32.30,-84.77,Cusseta,29402457,
39840,STANDARD,CUTHBERT,GA,PRIMARY,31.77,-84.75,Cuthbert,47382365,
30423,PO BOX,DAISY,GA,PRIMARY,32.15,-81.83,Daisy,,
39841,STANDARD,DAMASCUS,GA,PRIMARY,31.28,-84.67,Damascus,8604744,
31017,STANDARD,DANVILLE,GA,PRIMARY,32.60,-83.24,Danville,26287509,
31305,STANDARD,DARIEN,GA,PRIMARY,31.37,-81.42,Darien,60691080,
31018,STANDARD,DAVISBORO,GA,PRIMARY,32.98,-82.60,Davisboro,13778028,
39842,STANDARD,DAWSON,GA,PRIMARY,31.76,-84.44,Dawson,88085406,
30808,STANDARD,DEARING,GA,PRIMARY,33.41,-82.38,Dearing,50405595,
31532,STANDARD,DENTON,GA,PRIMARY,31.72,-82.69,Denton,8045990,
31743,STANDARD,DE SOTO,GA,PRIMARY,31.95,-84.06,De Soto,,
31019,STANDARD,DEXTER,GA,PRIMARY,32.43,-83.06,Dexter,29214557,
31629,STANDARD,DIXIE,GA,PRIMARY,30.78,-83.66,Dixie,8799045,
31744,STANDARD,DOERUN,GA,PRIMARY,31.31,-83.91,Doerun,36926398,
39845,STANDARD,DONALSONVILLE,GA,PRIMARY,31.04,-84.87,Donalsonville,81262946,
31533,STANDARD,DOUGLAS,GA,PRIMARY,31.50,-82.85,Douglas,146305084,
31534,PO BOX,DOUGLAS,GA,PRIMARY,31.50,-82.85,Douglas,35285300,
31535,STANDARD,DOUGLAS,GA,PRIMARY,31.50,-82.85,Douglas,120418577,
30424,PO BOX,DOVER,GA,PRIMARY,32.57,-81.71,Dover,,
31020,STANDARD,DRY BRANCH,GA,PRIMARY,32.63,-83.47,Dry Branch,24955275,
31021,STANDARD,DUBLIN,GA,PRIMARY,32.53,-82.92,Dublin,342488100,
31027,STANDARD,EAST DUBLIN,GA,PRIMARY,32.53,-82.92,East Dublin,96679052,
31040,PO BOX,DUBLIN,GA,PRIMARY,32.53,-82.92,Dublin,41895069,
31022,STANDARD,DUDLEY,GA,PRIMARY,32.53,-83.08,Dudley,23032195,
31630,STANDARD,DU PONT,GA,PRIMARY,30.98,-82.86,Du Pont,,
31023,STANDARD,EASTMAN,GA,PRIMARY,32.19,-83.17,Eastman,153824301,
31024,STANDARD,EATONTON,GA,PRIMARY,33.32,-83.38,Eatonton,252689868,
31026,UNIQUE,EATONTON,GA,PRIMARY,33.33,-83.39,Eatonton,,"no NWS data, "
31307,PO BOX,EDEN,GA,PRIMARY,32.17,-81.39,Eden,17711541,
39846,STANDARD,EDISON,GA,PRIMARY,31.56,-84.73,Edison,19643917,
31025,STANDARD,ELKO,GA,PRIMARY,32.33,-83.73,Elko,21409699,
31308,STANDARD,ELLABELL,GA,PRIMARY,32.12,-81.48,Ellabell,100877611,
31806,STANDARD,ELLAVILLE,GA,PRIMARY,32.23,-84.30,Ellaville,49515311,
31747,PO BOX,ELLENTON,GA,PRIMARY,31.17,-83.58,Ellenton,,
31807,STANDARD,ELLERSLIE,GA,PRIMARY,32.64,-84.79,Ellerslie,51996391,
31749,STANDARD,ENIGMA,GA,PRIMARY,31.40,-83.33,Enigma,21579199,
30809,STANDARD,EVANS,GA,PRIMARY,33.51,-82.14,Evans,935079015,
31631,STANDARD,FARGO,GA,PRIMARY,30.68,-82.56,Fargo,,
31750,STANDARD,FITZGERALD,GA,PRIMARY,31.70,-83.25,Fitzgerald,181058988,
31309,STANDARD,FLEMING,GA,PRIMARY,31.88,-81.42,Fleming,14453196,
31537,STANDARD,FOLKSTON,GA,PRIMARY,30.83,-82.00,Folkston,89614456,
31029,STANDARD,FORSYTH,GA,PRIMARY,33.03,-83.94,Forsyth,224132048,
39851,STANDARD,FORT GAINES,GA,PRIMARY,31.61,-84.99,Fort Gaines,17542395,
31808,STANDARD,FORTSON,GA,PRIMARY,32.63,-84.98,Fortson,164120308,
31030,STANDARD,FORT VALLEY,GA,PRIMARY,32.55,-83.88,Fort Valley,179072039,
39852,PO BOX,FOWLSTOWN,GA,PRIMARY,30.79,-84.55,Fowlstown,,"no NWS data, "
31753,PO BOX,FUNSTON,GA,PRIMARY,31.20,-83.87,Funston,,
30425,STANDARD,GARFIELD,GA,PRIMARY,32.65,-82.09,Garfield,14708002,
31810,PO BOX,GENEVA,GA,PRIMARY,32.57,-84.55,Geneva,,
39854,STANDARD,GEORGETOWN,GA,PRIMARY,31.85,-85.04,Georgetown,18838418,
30810,STANDARD,GIBSON,GA,PRIMARY,33.23,-82.59,Gibson,21350031,
30426,STANDARD,GIRARD,GA,PRIMARY,33.04,-81.71,Girard,8457018,
30427,STANDARD,GLENNVILLE,GA,PRIMARY,31.93,-81.93,Glennville,111936916,
30428,STANDARD,GLENWOOD,GA,PRIMARY,32.18,-82.67,Glenwood,22452433,
31031,STANDARD,GORDON,GA,PRIMARY,32.88,-83.33,Gordon,74535288,
30812,PO BOX,GRACEWOOD,GA,PRIMARY,33.38,-82.02,Gracewood,,
31032,STANDARD,GRAY,GA,PRIMARY,33.00,-83.53,Gray,228438720,
30813,STANDARD,GROVETOWN,GA,PRIMARY,33.44,-82.20,Grovetown,455780911,
31312,STANDARD,GUYTON,GA,PRIMARY,32.33,-81.39,Guyton,290289533,
31033,STANDARD,HADDOCK,GA,PRIMARY,33.08,-83.44,Haddock,30094020,
30429,PO BOX,HAGAN,GA,PRIMARY,32.15,-81.92,Hagan,13164402,
31632,STANDARD,HAHIRA,GA,PRIMARY,30.99,-83.37,Hahira,159081943,
31811,STANDARD,HAMILTON,GA,PRIMARY,32.75,-84.87,Hamilton,84378596,
31034,PO BOX,HARDWICK,GA,PRIMARY,32.99,-83.29,Hardwick,21595878,
30814,STANDARD,HARLEM,GA,PRIMARY,33.41,-82.31,Harlem,109036611,
31035,STANDARD,HARRISON,GA,PRIMARY,32.82,-82.72,Harrison,16146451,
31756,STANDARD,HARTSFIELD,GA,PRIMARY,31.21,-83.97,Hartsfield,11319882,
31036,STANDARD,HAWKINSVILLE,GA,PRIMARY,32.28,-83.47,Hawkinsville,130610566,
31539,STANDARD,HAZLEHURST,GA,PRIMARY,31.86,-82.59,Hazlehurst,136062241,
31037,STANDARD,HELENA,GA,PRIMARY,32.07,-82.91,Helena,25197755,
30815,STANDARD,HEPHZIBAH,GA,PRIMARY,33.28,-82.10,Hephzibah,508577907,
31038,STANDARD,HILLSBORO,GA,PRIMARY,33.17,-83.70,Hillsboro,10703049,
31310,PO BOX,HINESVILLE,GA,PRIMARY,31.83,-81.59,Hinesville,18537714,
31313,STANDARD,HINESVILLE,GA,PRIMARY,31.83,-81.59,Hinesville,437125821,
31314,STANDARD,FORT STEWART,GA,PRIMARY,31.87,-81.61,Fort Stewart,19535632,
31315,STANDARD,FORT STEWART,GA,PRIMARY,31.87,-81.61,Fort Stewart,74494147,
31542,STANDARD,HOBOKEN,GA,PRIMARY,31.18,-82.13,Hoboken,27857931,
31634,STANDARD,HOMERVILLE,GA,PRIMARY,31.03,-82.75,Homerville,56817807,
31543,STANDARD,HORTENSE,GA,PRIMARY,31.33,-81.95,Hortense,47414084,
31039,PO BOX,HOWARD,GA,PRIMARY,32.60,-84.38,Howard,,
31041,STANDARD,IDEAL,GA,PRIMARY,32.37,-84.18,Ideal,7266509,
39859,STANDARD,IRON CITY,GA,PRIMARY,30.97,-84.80,Iron City,14178801,
31042,STANDARD,IRWINTON,GA,PRIMARY,32.81,-83.17,Irwinton,21204922,
31760,PO BOX,IRWINVILLE,GA,PRIMARY,31.64,-83.38,Irwinville,,
31544,STANDARD,JACKSONVILLE,GA,PRIMARY,31.81,-82.97,Jacksonville,5967650,
39861,STANDARD,JAKIN,GA,PRIMARY,31.14,-85.00,Jakin,9684137,
31044,STANDARD,JEFFERSONVILLE,GA,PRIMARY,32.68,-83.34,Jeffersonville,37758437,
31545,STANDARD,JESUP,GA,PRIMARY,31.59,-81.88,Jesup,170200897,
31546,STANDARD,JESUP,GA,PRIMARY,31.59,-81.88,Jesup,73149812,
31598,PO BOX,JESUP,GA,PRIMARY,31.59,-81.88,Jesup,16673075,
31599,UNIQUE,JESUP,GA,PRIMARY,31.59,-81.88,Jesup,,
31045,STANDARD,JEWELL,GA,PRIMARY,33.33,-82.73,Jewell,,
31046,STANDARD,JULIETTE,GA,PRIMARY,33.12,-83.82,Juliette,63583970,
31812,STANDARD,JUNCTION CITY,GA,PRIMARY,32.60,-84.45,Junction City,,
31047,STANDARD,KATHLEEN,GA,PRIMARY,32.45,-83.58,Kathleen,238221528,
30811,PO BOX,GOUGH,GA,PRIMARY,33.04,-82.22,Gough,,
30816,STANDARD,KEYSVILLE,GA,PRIMARY,33.23,-82.22,Keysville,19663130,
31548,STANDARD,KINGSLAND,GA,PRIMARY,30.79,-81.66,Kingsland,299843667,
31049,STANDARD,KITE,GA,PRIMARY,32.69,-82.51,Kite,19441552,
31635,STANDARD,LAKELAND,GA,PRIMARY,31.04,-83.07,Lakeland,57781792,
31636,STANDARD,LAKE PARK,GA,PRIMARY,30.68,-83.18,Lake Park,128630584,
39862,STANDARD,LEARY,GA,PRIMARY,31.48,-84.50,Leary,13847749,
31763,STANDARD,LEESBURG,GA,PRIMARY,31.73,-84.17,Leesburg,439409018,
31637,STANDARD,LENOX,GA,PRIMARY,31.26,-83.46,Lenox,29530201,
31764,STANDARD,LESLIE,GA,PRIMARY,31.95,-84.08,Leslie,16761182,
31051,PO BOX,LILLY,GA,PRIMARY,32.14,-83.87,Lilly,,
30817,STANDARD,LINCOLNTON,GA,PRIMARY,33.79,-82.47,Lincolnton,89439468,
31052,STANDARD,LIZELLA,GA,PRIMARY,32.76,-83.86,Lizella,150211637,
30434,STANDARD,LOUISVILLE,GA,PRIMARY,32.99,-82.40,Louisville,60368673,
31814,PO BOX,LOUVALE,GA,PRIMARY,32.16,-84.81,Louvale,,
31316,STANDARD,LUDOWICI,GA,PRIMARY,31.71,-81.74,Ludowici,92330492,
31549,STANDARD,LUMBER CITY,GA,PRIMARY,31.93,-82.68,Lumber City,15417002,
31815,STANDARD,LUMPKIN,GA,PRIMARY,32.04,-84.79,Lumpkin,20376696,
30436,STANDARD,LYONS,GA,PRIMARY,32.20,-82.32,Lyons,112095015,
31054,STANDARD,MC INTYRE,GA,PRIMARY,32.84,-83.19,Mc Intyre,19033239,
31055,STANDARD,MC RAE,GA,PRIMARY,32.06,-82.90,Mc Rae,46891567,
31201,STANDARD,MACON,GA,PRIMARY,32.83,-83.65,Macon,68291215,
31202,PO BOX,MACON,GA,PRIMARY,32.83,-83.65,Macon,,
31203,PO BOX,MACON,GA,PRIMARY,32.83,-83.65,Macon,6464529,
31204,STANDARD,MACON,GA,PRIMARY,32.83,-83.65,Macon,341571347,
31205,PO BOX,MACON,GA,PRIMARY,32.83,-83.65,Macon,7261859,
31206,STANDARD,MACON,GA,PRIMARY,32.83,-83.65,Macon,222406053,
31207,UNIQUE,MACON,GA,PRIMARY,32.83,-83.65,Macon,,
31208,PO BOX,MACON,GA,PRIMARY,32.83,-83.65,Macon,29754085,
31209,PO BOX,MACON,GA,PRIMARY,32.83,-83.65,Macon,,
31210,STANDARD,MACON,GA,PRIMARY,32.83,-83.65,Macon,701050238,
31211,STANDARD,MACON,GA,PRIMARY,32.83,-83.65,Macon,205730150,
31212,PO BOX,MACON,GA,PRIMARY,32.83,-83.65,Macon,,
31213,UNIQUE,MACON,GA,PRIMARY,32.83,-83.65,Macon,,
31216,STANDARD,MACON,GA,PRIMARY,32.83,-83.65,Macon,251849778,
31217,STANDARD,MACON,GA,PRIMARY,32.83,-83.65,Macon,171082044,
31220,STANDARD,MACON,GA,PRIMARY,32.83,-83.65,Macon,259506008,
31221,PO BOX,MACON,GA,PRIMARY,32.83,-83.65,Macon,11912811,
31294,UNIQUE,MACON,GA,PRIMARY,32.83,-83.65,Macon,,
31295,UNIQUE,MACON,GA,PRIMARY,32.83,-83.65,Macon,,
31296,UNIQUE,MACON,GA,PRIMARY,32.83,-83.65,Macon,,
31297,PO BOX,MACON,GA,PRIMARY,32.83,-83.65,Macon,,
31816,STANDARD,MANCHESTER,GA,PRIMARY,32.85,-84.61,Manchester,61009581,
31550,STANDARD,MANOR,GA,PRIMARY,31.10,-82.57,Manor,8788873,
31057,STANDARD,MARSHALLVILLE,GA,PRIMARY,32.45,-83.94,Marshallville,19761397,
31058,STANDARD,MAUK,GA,PRIMARY,32.50,-84.37,Mauk,16528710,
31765,STANDARD,MEIGS,GA,PRIMARY,31.07,-84.09,Meigs,26127126,
31318,PO BOX,MELDRIM,GA,PRIMARY,32.14,-81.37,Meldrim,,
31319,PO BOX,MERIDIAN,GA,PRIMARY,31.45,-81.37,Meridian,,
31551,STANDARD,MERSHON,GA,PRIMARY,31.47,-82.21,Mershon,10201883,
30819,PO BOX,MESENA,GA,PRIMARY,33.45,-82.58,Mesena,,
30439,STANDARD,METTER,GA,PRIMARY,32.39,-82.06,Metter,94804678,
31820,STANDARD,MIDLAND,GA,PRIMARY,32.58,-84.84,Midland,234510736,
30441,STANDARD,MIDVILLE,GA,PRIMARY,32.82,-82.23,Midville,20252179,
31320,STANDARD,MIDWAY,GA,PRIMARY,31.80,-81.42,Midway,122409287,
31060,STANDARD,MILAN,GA,PRIMARY,32.01,-83.06,Milan,14174512,
31059,PO BOX,MILLEDGEVILLE,GA,PRIMARY,33.08,-83.30,Milledgeville,26346937,"no NWS data, "
31061,STANDARD,MILLEDGEVILLE,GA,PRIMARY,33.08,-83.23,Milledgeville,424296298,
31062,UNIQUE,MILLEDGEVILLE,GA,PRIMARY,33.08,-83.23,Milledgeville,,
30442,STANDARD,MILLEN,GA,PRIMARY,32.80,-81.94,Millen,65655057,
31552,STANDARD,MILLWOOD,GA,PRIMARY,31.26,-82.66,Millwood,10757107,
30820,STANDARD,MITCHELL,GA,PRIMARY,33.21,-82.70,Mitchell,13358043,
31063,STANDARD,MONTEZUMA,GA,PRIMARY,32.29,-84.02,Montezuma,48286311,
31064,STANDARD,MONTICELLO,GA,PRIMARY,33.30,-83.68,Monticello,120359502,
31065,STANDARD,MONTROSE,GA,PRIMARY,32.56,-83.15,Montrose,14457372,
39866,STANDARD,MORGAN,GA,PRIMARY,31.55,-84.62,Morgan,,
39867,STANDARD,MORRIS,GA,PRIMARY,31.82,-84.94,Morris,,
31638,STANDARD,MORVEN,GA,PRIMARY,30.94,-83.50,Morven,9069400,
31768,STANDARD,MOULTRIE,GA,PRIMARY,31.16,-83.77,Moultrie,218003787,
31776,PO BOX,MOULTRIE,GA,PRIMARY,31.16,-83.77,Moultrie,31498975,
31788,STANDARD,MOULTRIE,GA,PRIMARY,31.12,-83.68,Moultrie,89142764,
30445,STANDARD,MOUNT VERNON,GA,PRIMARY,32.18,-82.59,Mount Vernon,26299516,
31050,STANDARD,KNOXVILLE,GA,PRIMARY,32.63,-83.96,Knoxville,8950760,
31066,STANDARD,MUSELLA,GA,PRIMARY,32.83,-84.04,Musella,14819579,
31769,PO BOX,MYSTIC,GA,PRIMARY,31.62,-83.33,Mystic,,
31553,STANDARD,NAHUNTA,GA,PRIMARY,31.20,-81.98,Nahunta,51170193,
31639,STANDARD,NASHVILLE,GA,PRIMARY,31.20,-83.24,Nashville,108167646,
31641,STANDARD,NAYLOR,GA,PRIMARY,30.90,-83.07,Naylor,24845676,
30446,STANDARD,NEWINGTON,GA,PRIMARY,32.58,-81.50,Newington,17067460,
39870,STANDARD,NEWTON,GA,PRIMARY,31.30,-84.37,Newton,24844189,
31554,STANDARD,NICHOLLS,GA,PRIMARY,31.51,-82.63,Nicholls,50872704,
31771,STANDARD,NORMAN PARK,GA,PRIMARY,31.26,-83.68,Norman Park,53241965,
30447,PO BOX,NORRISTOWN,GA,PRIMARY,32.56,-82.55,Norristown,,
30821,STANDARD,NORWOOD,GA,PRIMARY,33.46,-82.70,Norwood,10559129,
30448,PO BOX,NUNEZ,GA,PRIMARY,32.49,-82.34,Nunez,,
31772,STANDARD,OAKFIELD,GA,PRIMARY,31.77,-83.97,Oakfield,,
31773,STANDARD,OCHLOCKNEE,GA,PRIMARY,30.97,-84.05,Ochlocknee,47594421,
31774,STANDARD,OCILLA,GA,PRIMARY,31.59,-83.24,Ocilla,62417392,
31067,PO BOX,OCONEE,GA,PRIMARY,32.85,-82.95,Oconee,,
31555,STANDARD,ODUM,GA,PRIMARY,31.66,-82.02,Odum,37895724,
31556,PO BOX,OFFERMAN,GA,PRIMARY,31.41,-82.11,Offerman,,
31068,STANDARD,OGLETHORPE,GA,PRIMARY,32.29,-84.06,Oglethorpe,34792709,
30449,PO BOX,OLIVER,GA,PRIMARY,32.52,-81.53,Oliver,,
31821,STANDARD,OMAHA,GA,PRIMARY,32.14,-85.01,Omaha,,
31775,STANDARD,OMEGA,GA,PRIMARY,31.33,-83.59,Omega,28178171,
39877,STANDARD,PARROTT,GA,PRIMARY,31.92,-84.49,Parrott,,
31557,STANDARD,PATTERSON,GA,PRIMARY,31.38,-82.13,Patterson,35084487,
31778,STANDARD,PAVO,GA,PRIMARY,30.96,-83.73,Pavo,28636484,
31642,STANDARD,PEARSON,GA,PRIMARY,31.29,-82.85,Pearson,40432353,
31739,PO BOX,COTTON,GA,PRIMARY,31.16,-84.06,Cotton,,
31779,STANDARD,PELHAM,GA,PRIMARY,31.12,-84.15,Pelham,80624992,
31321,STANDARD,PEMBROKE,GA,PRIMARY,32.13,-81.62,Pembroke,82253416,
30822,STANDARD,PERKINS,GA,PRIMARY,32.90,-81.95,Perkins,,
31069,STANDARD,PERRY,GA,PRIMARY,32.46,-83.73,Perry,273091696,
31070,STANDARD,PINEHURST,GA,PRIMARY,32.19,-83.76,Pinehurst,8979320,
31822,STANDARD,PINE MOUNTAIN,GA,PRIMARY,32.86,-84.85,Pine Mountain,87472946,
31823,STANDARD,PINE MOUNTAIN VALLEY,GA,PRIMARY,32.78,-84.82,Pine Mountain Valley,9659646,
31071,STANDARD,PINEVIEW,GA,PRIMARY,32.10,-83.50,Pineview,12045245,
31072,STANDARD,PITTS,GA,PRIMARY,31.94,-83.54,Pitts,11951876,
31780,STANDARD,PLAINS,GA,PRIMARY,32.03,-84.39,Plains,21200246,
31322,STANDARD,POOLER,GA,PRIMARY,32.10,-81.25,Pooler,440199538,
30450,STANDARD,PORTAL,GA,PRIMARY,32.53,-81.93,Portal,24555412,
31781,STANDARD,POULAN,GA,PRIMARY,31.51,-83.78,Poulan,19805594,
31824,STANDARD,PRESTON,GA,PRIMARY,32.06,-84.54,Preston,18183190,
30451,PO BOX,PULASKI,GA,PRIMARY,32.39,-81.95,Pulaski,,
31782,PO BOX,PUTNEY,GA,PRIMARY,31.47,-84.11,Putney,,
31643,STANDARD,QUITMAN,GA,PRIMARY,30.78,-83.56,Quitman,86057914,
31645,STANDARD,RAY CITY,GA,PRIMARY,31.07,-83.19,Ray City,43779721,
31783,STANDARD,REBECCA,GA,PRIMARY,31.80,-83.48,Rebecca,12182704,
30452,STANDARD,REGISTER,GA,PRIMARY,32.36,-81.88,Register,18664920,
30453,STANDARD,REIDSVILLE,GA,PRIMARY,32.08,-82.11,Reidsville,59828745,
30499,UNIQUE,REIDSVILLE,GA,PRIMARY,32.08,-82.11,Reidsville,,
31075,STANDARD,RENTZ,GA,PRIMARY,32.38,-82.99,Rentz,29637928,
31076,STANDARD,REYNOLDS,GA,PRIMARY,32.55,-84.09,Reynolds,36050212,
31077,STANDARD,RHINE,GA,PRIMARY,31.98,-83.20,Rhine,12119191,
31323,STANDARD,RICEBORO,GA,PRIMARY,31.72,-81.44,Riceboro,22302605,
31825,STANDARD,RICHLAND,GA,PRIMARY,32.08,-84.67,Richland,23559593,
31324,STANDARD,RICHMOND HILL,GA,PRIMARY,31.93,-81.30,Richmond Hill,474641474,
31326,STANDARD,RINCON,GA,PRIMARY,32.29,-81.23,Rincon,356723487,
31078,STANDARD,ROBERTA,GA,PRIMARY,32.71,-84.01,Roberta,41431975,
31079,STANDARD,ROCHELLE,GA,PRIMARY,31.94,-83.45,Rochelle,28900155,
30454,STANDARD,ROCKLEDGE,GA,PRIMARY,32.36,-82.74,Rockledge,8114749,
30455,STANDARD,ROCKY FORD,GA,PRIMARY,32.66,-81.82,Rocky Ford,6962840,
31081,STANDARD,RUPERT,GA,PRIMARY,32.42,-84.28,Rupert,,
31562,STANDARD,SAINT GEORGE,GA,PRIMARY,30.50,-82.12,Saint George,17615695,
31547,STANDARD,KINGS BAY,GA,PRIMARY,30.80,-81.53,Kings Bay,7835183,
31558,STANDARD,SAINT MARYS,GA,PRIMARY,30.75,-81.57,Saint Marys,290128605,
31784,STANDARD,SALE CITY,GA,PRIMARY,31.26,-84.02,Sale City,9244696,
31082,STANDARD,SANDERSVILLE,GA,PRIMARY,32.98,-82.81,Sandersville,137036852,
31327,PO BOX,SAPELO ISLAND,GA,PRIMARY,31.39,-81.27,Sapelo Island,,
30456,STANDARD,SARDIS,GA,PRIMARY,32.97,-81.76,Sardis,19116581,
39885,PO BOX,SASSER,GA,PRIMARY,31.71,-84.34,Sasser,,"no NWS data, "
31401,STANDARD,SAVANNAH,GA,PRIMARY,32.08,-81.10,Savannah,186497821,
31402,PO BOX,SAVANNAH,GA,PRIMARY,32.08,-81.10,Savannah,19278764,
31403,PO BOX,SAVANNAH,GA,PRIMARY,32.08,-81.10,Savannah,13524078,
31404,STANDARD,SAVANNAH,GA,PRIMARY,32.08,-81.10,Savannah,314767958,
31405,STANDARD,SAVANNAH,GA,PRIMARY,32.08,-81.10,Savannah,498440079,
31406,STANDARD,SAVANNAH,GA,PRIMARY,32.08,-81.10,Savannah,549875664,
31407,STANDARD,SAVANNAH,GA,PRIMARY,32.08,-81.10,Savannah,87275271,
31408,STANDARD,SAVANNAH,GA,PRIMARY,32.08,-81.10,Savannah,97742981,
31409,PO BOX,SAVANNAH,GA,PRIMARY,32.08,-81.10,Savannah,12547854,
31410,STANDARD,SAVANNAH,GA,PRIMARY,32.08,-81.10,Savannah,566547068,
31411,STANDARD,SAVANNAH,GA,PRIMARY,32.08,-81.10,Savannah,293058435,
31412,PO BOX,SAVANNAH,GA,PRIMARY,32.08,-81.10,Savannah,20654656,
31414,PO BOX,SAVANNAH,GA,PRIMARY,32.08,-81.10,Savannah,10799510,
31415,STANDARD,SAVANNAH,GA,PRIMARY,32.08,-81.10,Savannah,90620840,
31416,PO BOX,SAVANNAH,GA,PRIMARY,32.08,-81.10,Savannah,27499596,
31418,PO BOX,SAVANNAH,GA,PRIMARY,32.08,-81.10,Savannah,11707255,
31419,STANDARD,SAVANNAH,GA,PRIMARY,32.08,-81.10,Savannah,734986426,
31420,PO BOX,SAVANNAH,GA,PRIMARY,32.08,-81.10,Savannah,14689543,
31421,STANDARD,SAVANNAH,GA,PRIMARY,32.08,-81.10,Savannah,,
31083,PO BOX,SCOTLAND,GA,PRIMARY,32.04,-82.81,Scotland,,
31560,STANDARD,SCREVEN,GA,PRIMARY,31.48,-82.01,Screven,29078169,
31084,PO BOX,SEVILLE,GA,PRIMARY,31.95,-83.59,Seville,,
31085,STANDARD,SHADY DALE,GA,PRIMARY,33.40,-83.58,Shady Dale,12251122,
39886,STANDARD,SHELLMAN,GA,PRIMARY,31.73,-84.60,Shellman,16583113,
31826,STANDARD,SHILOH,GA,PRIMARY,32.81,-84.69,Shiloh,21905374,
31086,PO BOX,SMARR,GA,PRIMARY,32.98,-83.87,Smarr,,
31787,STANDARD,SMITHVILLE,GA,PRIMARY,31.90,-84.25,Smithville,18275576,
30457,STANDARD,SOPERTON,GA,PRIMARY,32.37,-82.59,Soperton,55667445,
31647,STANDARD,SPARKS,GA,PRIMARY,31.16,-83.44,Sparks,31136003,
31087,STANDARD,SPARTA,GA,PRIMARY,33.27,-82.97,Sparta,75786610,
31329,STANDARD,SPRINGFIELD,GA,PRIMARY,32.36,-81.30,Springfield,121658939,
30823,STANDARD,STAPLETON,GA,PRIMARY,33.21,-82.46,Stapleton,17863022,
31648,STANDARD,STATENVILLE,GA,PRIMARY,30.70,-83.03,Statenville,6516598,
30458,STANDARD,STATESBORO,GA,PRIMARY,32.44,-81.77,Statesboro,319149426,
30459,PO BOX,STATESBORO,GA,PRIMARY,32.44,-81.77,Statesboro,33938179,
30460,UNIQUE,STATESBORO,GA,PRIMARY,32.44,-81.77,Statesboro,2420108,
30461,STANDARD,STATESBORO,GA,PRIMARY,32.44,-81.77,Statesboro,200226985,
30464,PO BOX,STILLMORE,GA,PRIMARY,32.44,-82.21,Stillmore,4674731,
31649,STANDARD,STOCKTON,GA,PRIMARY,30.93,-83.00,Stockton,8168390,
31789,STANDARD,SUMNER,GA,PRIMARY,31.51,-83.74,Sumner,18145167,
31563,STANDARD,SURRENCY,GA,PRIMARY,31.72,-82.19,Surrency,16056720,
30401,STANDARD,SWAINSBORO,GA,PRIMARY,32.59,-82.33,Swainsboro,127991469,
31790,STANDARD,SYCAMORE,GA,PRIMARY,31.67,-83.63,Sycamore,22122037,
30467,STANDARD,SYLVANIA,GA,PRIMARY,32.75,-81.63,Sylvania,137885942,
31791,STANDARD,SYLVESTER,GA,PRIMARY,31.52,-83.83,Sylvester,158276537,
31827,STANDARD,TALBOTTON,GA,PRIMARY,32.67,-84.54,Talbotton,20400855,
30470,STANDARD,TARRYTOWN,GA,PRIMARY,32.31,-82.55,Tarrytown,9596581,
31089,STANDARD,TENNILLE,GA,PRIMARY,32.93,-82.81,Tennille,51591757,
31757,STANDARD,THOMASVILLE,GA,PRIMARY,30.83,-83.97,Thomasville,140595679,
31758,PO BOX,THOMASVILLE,GA,PRIMARY,30.83,-83.97,Thomasville,10581143,
31792,STANDARD,THOMASVILLE,GA,PRIMARY,30.83,-83.97,Thomasville,310304611,
31799,PO BOX,THOMASVILLE,GA,PRIMARY,30.83,-83.97,Thomasville,23127400,
30824,STANDARD,THOMSON,GA,PRIMARY,33.46,-82.50,Thomson,216778996,
31793,STANDARD,TIFTON,GA,PRIMARY,31.46,-83.51,Tifton,148939433,
31794,STANDARD,TIFTON,GA,PRIMARY,31.46,-83.51,Tifton,279657891,
31090,STANDARD,TOOMSBORO,GA,PRIMARY,32.82,-83.08,Toomsboro,11051372,
31331,STANDARD,TOWNSEND,GA,PRIMARY,31.53,-81.52,Townsend,58548630,
30471,STANDARD,TWIN CITY,GA,PRIMARY,32.58,-82.15,Twin City,37803956,
31328,STANDARD,TYBEE ISLAND,GA,PRIMARY,32.01,-80.85,Tybee Island,64277825,
31795,STANDARD,TY TY,GA,PRIMARY,31.47,-83.65,Ty Ty,23810078,
31091,STANDARD,UNADILLA,GA,PRIMARY,32.25,-83.73,Unadilla,27057953,
30473,STANDARD,UVALDA,GA,PRIMARY,32.03,-82.50,Uvalda,26435154,
31601,STANDARD,VALDOSTA,GA,PRIMARY,30.84,-83.27,Valdosta,264692676,
31602,STANDARD,VALDOSTA,GA,PRIMARY,30.84,-83.27,Valdosta,430510502,
31603,PO BOX,VALDOSTA,GA,PRIMARY,30.84,-83.27,Valdosta,20177672,
31604,PO BOX,VALDOSTA,GA,PRIMARY,30.84,-83.27,Valdosta,20541637,
31605,STANDARD,VALDOSTA,GA,PRIMARY,30.84,-83.27,Valdosta,307035112,
31606,STANDARD,VALDOSTA,GA,PRIMARY,30.84,-83.27,Valdosta,45958900,
31698,UNIQUE,VALDOSTA,GA,PRIMARY,30.84,-83.27,Valdosta,,
31699,UNIQUE,MOODY A F B,GA,PRIMARY,30.84,-83.27,Moody A F B,7429646,
30474,STANDARD,VIDALIA,GA,PRIMARY,32.21,-82.40,Vidalia,184789784,
30475,PO BOX,VIDALIA,GA,PRIMARY,32.21,-82.40,Vidalia,33606386,
31092,STANDARD,VIENNA,GA,PRIMARY,32.08,-83.79,Vienna,60869766,
30477,STANDARD,WADLEY,GA,PRIMARY,32.86,-82.40,Wadley,37314553,
31333,PO BOX,WALTHOURVILLE,GA,PRIMARY,31.77,-81.62,Walthourville,10037254,
31564,PO BOX,WARESBORO,GA,PRIMARY,31.24,-82.47,Waresboro,,
31830,STANDARD,WARM SPRINGS,GA,PRIMARY,32.88,-84.67,Warm Springs,27502576,
31028,STANDARD,CENTERVILLE,GA,PRIMARY,32.63,-83.67,Centerville,103348211,
31088,STANDARD,WARNER ROBINS,GA,PRIMARY,32.61,-83.63,Warner Robins,845114056,
31093,STANDARD,WARNER ROBINS,GA,PRIMARY,32.61,-83.63,Warner Robins,311802918,
31095,PO BOX,WARNER ROBINS,GA,PRIMARY,32.61,-83.63,Warner Robins,26928006,
31098,STANDARD,WARNER ROBINS,GA,PRIMARY,32.61,-83.63,Warner Robins,36789581,
31099,PO BOX,WARNER ROBINS,GA,PRIMARY,32.61,-83.63,Warner Robins,13460299,
30828,STANDARD,WARRENTON,GA,PRIMARY,33.40,-82.66,Warrenton,41115586,
31094,STANDARD,WARTHEN,GA,PRIMARY,33.13,-82.79,Warthen,14960412,
31796,STANDARD,WARWICK,GA,PRIMARY,31.82,-83.92,Warwick,14760792,
31565,STANDARD,WAVERLY,GA,PRIMARY,31.09,-81.72,Waverly,26656861,
31831,STANDARD,WAVERLY HALL,GA,PRIMARY,32.68,-84.73,Waverly Hall,50385579,
31501,STANDARD,WAYCROSS,GA,PRIMARY,31.21,-82.35,Waycross,145522188,
31502,PO BOX,WAYCROSS,GA,PRIMARY,31.21,-82.35,Waycross,17384756,
31503,STANDARD,WAYCROSS,GA,PRIMARY,31.21,-82.35,Waycross,217568967,
30830,STANDARD,WAYNESBORO,GA,PRIMARY,33.09,-82.01,Waynesboro,157731392,
31566,STANDARD,WAYNESVILLE,GA,PRIMARY,31.22,-81.79,Waynesville,35740098,
31567,STANDARD,WEST GREEN,GA,PRIMARY,31.60,-82.73,West Green,6784142,
31832,STANDARD,WESTON,GA,PRIMARY,31.97,-84.61,Weston,,
31833,STANDARD,WEST POINT,GA,PRIMARY,32.87,-85.16,West Point,98941359,
39897,STANDARD,WHIGHAM,GA,PRIMARY,30.90,-84.32,Whigham,38955189,
31568,STANDARD,WHITE OAK,GA,PRIMARY,31.03,-81.82,White Oak,13088963,
31650,STANDARD,WILLACOOCHEE,GA,PRIMARY,31.34,-83.04,Willacoochee,27519179,
31569,STANDARD,WOODBINE,GA,PRIMARY,30.95,-81.72,Woodbine,85173983,
31836,STANDARD,WOODLAND,GA,PRIMARY,32.78,-84.56,Woodland,10776587,
31798,STANDARD,WRAY,GA,PRIMARY,31.62,-83.05,Wray,11634929,
30818,STANDARD,MATTHEWS,GA,PRIMARY,33.21,-82.28,Matthews,,
30833,STANDARD,WRENS,GA,PRIMARY,33.20,-82.38,Wrens,43812836,
31096,STANDARD,WRIGHTSVILLE,GA,PRIMARY,32.72,-82.72,Wrightsville,60284128,
31097,STANDARD,YATESVILLE,GA,PRIMARY,32.91,-84.14,Yatesville,16812625,
30101,STANDARD,ACWORTH,GA,PRIMARY,34.05,-84.67,Acworth,1293162174,
30102,STANDARD,ACWORTH,GA,PRIMARY,34.05,-84.67,Acworth,662536193,
30103,STANDARD,ADAIRSVILLE,GA,PRIMARY,34.36,-84.91,Adairsville,201359309,
30004,STANDARD,ALPHARETTA,GA,PRIMARY,34.06,-84.27,Alpharetta,2051342137,
30005,STANDARD,ALPHARETTA,GA,PRIMARY,34.06,-84.27,Alpharetta,1182244735,
30009,STANDARD,ALPHARETTA,GA,PRIMARY,34.06,-84.27,Alpharetta,325809626,
30022,STANDARD,ALPHARETTA,GA,PRIMARY,34.06,-84.27,Alpharetta,,
30023,PO BOX,ALPHARETTA,GA,PRIMARY,34.06,-84.27,Alpharetta,22524630,
30510,STANDARD,ALTO,GA,PRIMARY,34.47,-83.57,Alto,72392901,
30104,STANDARD,ARAGON,GA,PRIMARY,34.04,-85.05,Aragon,61408734,
30105,STANDARD,ARMUCHEE,GA,PRIMARY,34.47,-85.21,Armuchee,40674129,
30619,STANDARD,ARNOLDSVILLE,GA,PRIMARY,33.91,-83.21,Arnoldsville,23345941,
30601,STANDARD,ATHENS,GA,PRIMARY,33.95,-83.39,Athens,155738362,
30602,UNIQUE,ATHENS,GA,PRIMARY,33.95,-83.39,Athens,,
30603,PO BOX,ATHENS,GA,PRIMARY,33.95,-83.39,Athens,13005530,
30604,PO BOX,ATHENS,GA,PRIMARY,33.95,-83.39,Athens,24324562,
30605,STANDARD,ATHENS,GA,PRIMARY,33.95,-83.39,Athens,405319339,
30606,STANDARD,ATHENS,GA,PRIMARY,33.95,-83.39,Athens,614694089,
30607,STANDARD,ATHENS,GA,PRIMARY,33.95,-83.39,Athens,133679654,
30608,PO BOX,ATHENS,GA,PRIMARY,33.95,-83.39,Athens,13913137,
30609,UNIQUE,ATHENS,GA,PRIMARY,33.95,-83.39,Athens,,
30612,PO BOX,ATHENS,GA,PRIMARY,33.95,-83.39,Athens,,
30301,PO BOX,ATLANTA,GA,PRIMARY,33.85,-84.39,Atlanta,40649309,
30302,PO BOX,ATLANTA,GA,PRIMARY,33.75,-84.38,Atlanta,11777761,
30303,STANDARD,ATLANTA,GA,PRIMARY,33.75,-84.39,Atlanta,56802672,
30304,STANDARD,ATLANTA,GA,PRIMARY,33.64,-84.39,Atlanta,,
30305,STANDARD,ATLANTA,GA,PRIMARY,33.83,-84.38,Atlanta,1136149490,
30306,STANDARD,ATLANTA,GA,PRIMARY,33.78,-84.34,Atlanta,928888693,
30307,STANDARD,ATLANTA,GA,PRIMARY,33.76,-84.33,Atlanta,634031848,
30308,STANDARD,ATLANTA,GA,PRIMARY,33.77,-84.37,Atlanta,417110003,
30309,STANDARD,ATLANTA,GA,PRIMARY,33.78,-84.38,Atlanta,923521797,
30310,STANDARD,ATLANTA,GA,PRIMARY,33.72,-84.42,Atlanta,256132145,
30311,STANDARD,ATLANTA,GA,PRIMARY,33.76,-84.42,Atlanta,339113822,
30312,STANDARD,ATLANTA,GA,PRIMARY,33.74,-84.37,Atlanta,370275696,
30313,STANDARD,ATLANTA,GA,PRIMARY,33.76,-84.39,Atlanta,100688737,
30314,STANDARD,ATLANTA,GA,PRIMARY,33.75,-84.42,Atlanta,138226697,
30315,STANDARD,ATLANTA,GA,PRIMARY,33.70,-84.38,Atlanta,305182543,
30316,STANDARD,ATLANTA,GA,PRIMARY,33.72,-84.32,Atlanta,561874749,
30317,STANDARD,ATLANTA,GA,PRIMARY,33.74,-84.31,Atlanta,243863386,
30318,STANDARD,ATLANTA,GA,PRIMARY,33.78,-84.44,Atlanta,839194989,
30319,STANDARD,ATLANTA,GA,PRIMARY,33.87,-84.33,Atlanta,1417154160,
30320,PO BOX,ATLANTA,GA,PRIMARY,33.63,-84.43,Atlanta,,
30321,PO BOX,ATLANTA,GA,PRIMARY,33.75,-84.38,Atlanta,25189188,
30322,UNIQUE,ATLANTA,GA,PRIMARY,33.79,-84.32,Atlanta,,
30324,STANDARD,ATLANTA,GA,PRIMARY,33.81,-84.36,Atlanta,734497144,
30325,PO BOX,ATLANTA,GA,PRIMARY,33.79,-84.44,Atlanta,10878850,
30326,STANDARD,ATLANTA,GA,PRIMARY,33.84,-84.35,Atlanta,207459968,
30327,STANDARD,ATLANTA,GA,PRIMARY,33.86,-84.42,Atlanta,1565488324,
30328,STANDARD,ATLANTA,GA,PRIMARY,33.93,-84.38,Atlanta,1011623513,
30329,STANDARD,ATLANTA,GA,PRIMARY,33.82,-84.32,Atlanta,448011113,
30330,UNIQUE,ATLANTA,GA,PRIMARY,33.70,-84.43,Atlanta,,
30331,STANDARD,ATLANTA,GA,PRIMARY,33.71,-84.53,Atlanta,753224462,
30332,UNIQUE,ATLANTA,GA,PRIMARY,33.76,-84.42,Atlanta,10063603,
30333,PO BOX,ATLANTA,GA,PRIMARY,33.79,-84.32,Atlanta,,
30334,STANDARD,ATLANTA,GA,PRIMARY,33.73,-84.40,Atlanta,,
30336,STANDARD,ATLANTA,GA,PRIMARY,33.74,-84.54,Atlanta,31812487,
30337,STANDARD,ATLANTA,GA,PRIMARY,33.64,-84.46,Atlanta,133645877,
30338,STANDARD,ATLANTA,GA,PRIMARY,33.94,-84.31,Atlanta,1104748538,
30339,STANDARD,ATLANTA,GA,PRIMARY,33.86,-84.47,Atlanta,660939377,
30340,STANDARD,ATLANTA,GA,PRIMARY,33.89,-84.25,Atlanta,362883291,
30341,STANDARD,ATLANTA,GA,PRIMARY,33.90,-84.30,Atlanta,548100187,
30342,STANDARD,ATLANTA,GA,PRIMARY,33.88,-84.37,Atlanta,1048001857,
30343,PO BOX,ATLANTA,GA,PRIMARY,33.75,-84.38,Atlanta,,
30344,STANDARD,ATLANTA,GA,PRIMARY,33.66,-84.45,Atlanta,391536059,
30345,STANDARD,ATLANTA,GA,PRIMARY,33.85,-84.28,Atlanta,631546130,
30346,STANDARD,ATLANTA,GA,PRIMARY,33.92,-84.34,Atlanta,143821988,
30348,PO BOX,ATLANTA,GA,PRIMARY,33.83,-84.38,Atlanta,,
30349,STANDARD,ATLANTA,GA,PRIMARY,33.61,-84.49,Atlanta,971165472,
30350,STANDARD,ATLANTA,GA,PRIMARY,33.97,-84.32,Atlanta,998025519,
30353,PO BOX,ATLANTA,GA,PRIMARY,33.75,-84.38,Atlanta,,
30354,STANDARD,ATLANTA,GA,PRIMARY,33.76,-84.42,Atlanta,149299587,
30355,PO BOX,ATLANTA,GA,PRIMARY,33.83,-84.36,Atlanta,23840503,
30356,PO BOX,ATLANTA,GA,PRIMARY,33.94,-84.33,Atlanta,10933002,
30357,PO BOX,ATLANTA,GA,PRIMARY,33.79,-84.38,Atlanta,18333538,
30358,PO BOX,ATLANTA,GA,PRIMARY,33.76,-84.42,Atlanta,28080324,
30359,PO BOX,ATLANTA,GA,PRIMARY,33.82,-84.32,Atlanta,12869267,
30360,STANDARD,ATLANTA,GA,PRIMARY,33.76,-84.42,Atlanta,263685354,
30361,STANDARD,ATLANTA,GA,PRIMARY,33.78,-84.38,Atlanta,,
30362,PO BOX,ATLANTA,GA,PRIMARY,33.76,-84.42,Atlanta,10872928,
30363,STANDARD,ATLANTA,GA,PRIMARY,33.84,-84.38,Atlanta,62168103,
30364,PO BOX,ATLANTA,GA,PRIMARY,33.67,-84.46,Atlanta,12138409,
30366,PO BOX,ATLANTA,GA,PRIMARY,33.88,-84.29,Atlanta,,
30368,UNIQUE,ATLANTA,GA,PRIMARY,33.76,-84.42,Atlanta,,
30369,STANDARD,ATLANTA,GA,PRIMARY,33.80,-84.47,Atlanta,,
30370,PO BOX,ATLANTA,GA,PRIMARY,33.75,-84.38,Atlanta,,
30371,PO BOX,ATLANTA,GA,PRIMARY,33.76,-84.42,Atlanta,,
30374,PO BOX,ATLANTA,GA,PRIMARY,33.57,-84.39,Atlanta,,
30375,UNIQUE,ATLANTA,GA,PRIMARY,33.77,-84.38,Atlanta,,
30377,PO BOX,ATLANTA,GA,PRIMARY,33.76,-84.42,Atlanta,,
30378,PO BOX,ATLANTA,GA,PRIMARY,33.76,-84.42,Atlanta,,
30380,UNIQUE,ATLANTA,GA,PRIMARY,33.64,-84.39,Atlanta,,
30384,UNIQUE,ATLANTA,GA,PRIMARY,33.89,-84.45,Atlanta,,
30385,UNIQUE,ATLANTA,GA,PRIMARY,33.76,-84.42,Atlanta,,
30388,UNIQUE,ATLANTA,GA,PRIMARY,33.76,-84.42,Atlanta,,
30392,PO BOX,ATLANTA,GA,PRIMARY,33.75,-84.38,Atlanta,,
30394,PO BOX,ATLANTA,GA,PRIMARY,33.75,-84.38,Atlanta,,
30396,UNIQUE,ATLANTA,GA,PRIMARY,33.64,-84.39,Atlanta,,
30398,UNIQUE,ATLANTA,GA,PRIMARY,33.64,-84.39,Atlanta,,
31106,PO BOX,ATLANTA,GA,PRIMARY,33.76,-84.42,Atlanta,,
31107,PO BOX,ATLANTA,GA,PRIMARY,33.76,-84.42,Atlanta,,
31119,PO BOX,ATLANTA,GA,PRIMARY,33.76,-84.42,Atlanta,10320509,
31126,PO BOX,ATLANTA,GA,PRIMARY,33.76,-84.42,Atlanta,7143345,
31131,PO BOX,ATLANTA,GA,PRIMARY,33.76,-84.42,Atlanta,13004248,
31136,UNIQUE,ATLANTA,GA,PRIMARY,33.72,-84.58,Atlanta,,"no NWS data, "
31139,PO BOX,ATLANTA,GA,PRIMARY,33.76,-84.42,Atlanta,16371673,
31141,PO BOX,ATLANTA,GA,PRIMARY,33.76,-84.42,Atlanta,,
31145,PO BOX,ATLANTA,GA,PRIMARY,33.76,-84.42,Atlanta,,
31146,PO BOX,ATLANTA,GA,PRIMARY,33.76,-84.42,Atlanta,,
31150,PO BOX,ATLANTA,GA,PRIMARY,33.76,-84.42,Atlanta,,
31156,PO BOX,ATLANTA,GA,PRIMARY,33.76,-84.42,Atlanta,,
31192,UNIQUE,ATLANTA,GA,PRIMARY,33.76,-84.42,Atlanta,,
31193,UNIQUE,ATLANTA,GA,PRIMARY,33.76,-84.42,Atlanta,,
31195,UNIQUE,ATLANTA,GA,PRIMARY,33.76,-84.42,Atlanta,,
31196,UNIQUE,ATLANTA,GA,PRIMARY,33.76,-84.42,Atlanta,,
39901,UNIQUE,ATLANTA,GA,PRIMARY,33.76,-84.42,Atlanta,3324614,
30011,STANDARD,AUBURN,GA,PRIMARY,34.01,-83.83,Auburn,244294380,
30106,STANDARD,AUSTELL,GA,PRIMARY,33.82,-84.64,Austell,289005163,
30168,STANDARD,AUSTELL,GA,PRIMARY,33.82,-84.64,Austell,297610405,
30002,STANDARD,AVONDALE ESTATES,GA,PRIMARY,33.76,-84.26,Avondale Estates,148658617,
30511,STANDARD,BALDWIN,GA,PRIMARY,34.48,-83.53,Baldwin,47491104,
30107,STANDARD,BALL GROUND,GA,PRIMARY,34.33,-84.37,Ball Ground,240554192,
30204,STANDARD,BARNESVILLE,GA,PRIMARY,33.05,-84.15,Barnesville,139259455,
30620,STANDARD,BETHLEHEM,GA,PRIMARY,33.93,-83.70,Bethlehem,199658257,
30621,STANDARD,BISHOP,GA,PRIMARY,33.81,-83.43,Bishop,100801882,
30512,STANDARD,BLAIRSVILLE,GA,PRIMARY,34.87,-83.95,Blairsville,158640391,
30514,PO BOX,BLAIRSVILLE,GA,PRIMARY,34.87,-83.95,Blairsville,41652406,
30513,STANDARD,BLUE RIDGE,GA,PRIMARY,34.86,-84.32,Blue Ridge,102776437,
30622,STANDARD,BOGART,GA,PRIMARY,33.94,-83.53,Bogart,212169638,
30623,PO BOX,BOSTWICK,GA,PRIMARY,33.73,-83.51,Bostwick,,
30108,STANDARD,BOWDON,GA,PRIMARY,33.53,-85.25,Bowdon,98023774,
30109,PO BOX,BOWDON JUNCTION,GA,PRIMARY,33.65,-85.13,Bowdon Junction,,
30516,STANDARD,BOWERSVILLE,GA,PRIMARY,34.37,-83.08,Bowersville,20130623,
30624,STANDARD,BOWMAN,GA,PRIMARY,34.20,-83.02,Bowman,28248741,
30517,STANDARD,BRASELTON,GA,PRIMARY,34.10,-83.78,Braselton,278637585,
30110,STANDARD,BREMEN,GA,PRIMARY,33.70,-85.15,Bremen,177752142,
30205,STANDARD,BROOKS,GA,PRIMARY,33.29,-84.45,Brooks,65113537,
30113,STANDARD,BUCHANAN,GA,PRIMARY,33.80,-85.18,Buchanan,71212439,
30625,STANDARD,BUCKHEAD,GA,PRIMARY,33.56,-83.36,Buckhead,32517139,
30515,PO BOX,BUFORD,GA,PRIMARY,34.11,-83.99,Buford,19446631,
30518,STANDARD,BUFORD,GA,PRIMARY,34.11,-83.99,Buford,811725891,
30519,STANDARD,BUFORD,GA,PRIMARY,34.11,-83.99,Buford,778821593,
30520,STANDARD,CANON,GA,PRIMARY,34.34,-83.11,Canon,44186055,
30114,STANDARD,CANTON,GA,PRIMARY,34.24,-84.49,Canton,955150485,
30115,STANDARD,CANTON,GA,PRIMARY,34.24,-84.49,Canton,779574179,
30169,PO BOX,CANTON,GA,PRIMARY,34.14,-84.30,Canton,10778922,"no NWS data, "
30627,STANDARD,CARLTON,GA,PRIMARY,34.04,-83.03,Carlton,23219293,
30521,STANDARD,CARNESVILLE,GA,PRIMARY,34.36,-83.23,Carnesville,56277141,
30112,PO BOX,CARROLLTON,GA,PRIMARY,33.58,-85.08,Carrollton,25540958,"no NWS data, "
30116,STANDARD,CARROLLTON,GA,PRIMARY,33.58,-85.07,Carrollton,363033718,
30117,STANDARD,CARROLLTON,GA,PRIMARY,33.58,-85.07,Carrollton,399133200,
30118,UNIQUE,CARROLLTON,GA,PRIMARY,33.58,-85.07,Carrollton,,
30119,UNIQUE,CARROLLTON,GA,PRIMARY,33.58,-85.07,Carrollton,,
30120,STANDARD,CARTERSVILLE,GA,PRIMARY,34.16,-84.80,Cartersville,583451524,
30121,STANDARD,CARTERSVILLE,GA,PRIMARY,34.16,-84.80,Cartersville,300373631,
30123,PO BOX,CASSVILLE,GA,PRIMARY,34.23,-84.84,Cassville,10254856,
30124,STANDARD,CAVE SPRING,GA,PRIMARY,34.10,-85.33,Cave Spring,40618742,
30125,STANDARD,CEDARTOWN,GA,PRIMARY,34.01,-85.25,Cedartown,263150829,
30522,STANDARD,CHERRY LOG,GA,PRIMARY,34.78,-84.45,Cherry Log,12505343,
30111,PO BOX,CLARKDALE,GA,PRIMARY,33.82,-84.65,Clarkdale,,
30523,STANDARD,CLARKESVILLE,GA,PRIMARY,34.60,-83.52,Clarkesville,162346159,
30021,STANDARD,CLARKSTON,GA,PRIMARY,33.81,-84.24,Clarkston,205411658,
30525,STANDARD,CLAYTON,GA,PRIMARY,34.87,-83.40,Clayton,92259168,
30527,STANDARD,CLERMONT,GA,PRIMARY,34.47,-83.77,Clermont,65692257,
30528,STANDARD,CLEVELAND,GA,PRIMARY,34.59,-83.76,Cleveland,256094867,
30628,STANDARD,COLBERT,GA,PRIMARY,34.03,-83.21,Colbert,92261157,
30629,STANDARD,COMER,GA,PRIMARY,34.06,-83.12,Comer,53687370,
30529,STANDARD,COMMERCE,GA,PRIMARY,34.20,-83.46,Commerce,135535064,
30530,STANDARD,COMMERCE,GA,PRIMARY,34.20,-83.46,Commerce,70744279,
30599,UNIQUE,COMMERCE,GA,PRIMARY,34.20,-83.46,Commerce,,
30206,STANDARD,CONCORD,GA,PRIMARY,33.09,-84.43,Concord,41191136,
30288,STANDARD,CONLEY,GA,PRIMARY,33.63,-84.33,Conley,108890007,
30012,STANDARD,CONYERS,GA,PRIMARY,33.66,-84.01,Conyers,331763057,
30013,STANDARD,CONYERS,GA,PRIMARY,33.66,-84.01,Conyers,394191818,
30094,STANDARD,CONYERS,GA,PRIMARY,33.66,-84.01,Conyers,539176287,
30129,PO BOX,COOSA,GA,PRIMARY,34.22,-85.39,Coosa,,
30531,STANDARD,CORNELIA,GA,PRIMARY,34.51,-83.52,Cornelia,133006079,
30014,STANDARD,COVINGTON,GA,PRIMARY,33.60,-83.85,Covington,447870873,
30015,PO BOX,COVINGTON,GA,PRIMARY,33.60,-83.85,Covington,23281569,
30016,STANDARD,COVINGTON,GA,PRIMARY,33.60,-83.85,Covington,713544653,
30630,STANDARD,CRAWFORD,GA,PRIMARY,33.88,-83.15,Crawford,27323156,
30631,STANDARD,CRAWFORDVILLE,GA,PRIMARY,33.55,-82.89,Crawfordville,14820635,
30028,STANDARD,CUMMING,GA,PRIMARY,34.20,-84.13,Cumming,387178081,
30040,STANDARD,CUMMING,GA,PRIMARY,34.20,-84.13,Cumming,1358199686,
30041,STANDARD,CUMMING,GA,PRIMARY,34.20,-84.13,Cumming,1458824035,
30019,STANDARD,DACULA,GA,PRIMARY,33.98,-83.88,Dacula,876162019,
30533,STANDARD,DAHLONEGA,GA,PRIMARY,34.53,-83.98,Dahlonega,299447365,
30597,UNIQUE,DAHLONEGA,GA,PRIMARY,34.53,-83.98,Dahlonega,,
30132,STANDARD,DALLAS,GA,PRIMARY,33.91,-84.83,Dallas,569160215,
30157,STANDARD,DALLAS,GA,PRIMARY,33.91,-84.83,Dallas,749860441,
30633,STANDARD,DANIELSVILLE,GA,PRIMARY,34.12,-83.22,Danielsville,99581843,
30534,STANDARD,DAWSONVILLE,GA,PRIMARY,34.42,-84.11,Dawsonville,415063004,
30030,STANDARD,DECATUR,GA,PRIMARY,33.77,-84.29,Decatur,727116079,
30031,PO BOX,DECATUR,GA,PRIMARY,33.77,-84.29,Decatur,27098469,
30032,STANDARD,DECATUR,GA,PRIMARY,33.77,-84.29,Decatur,498696306,
30033,STANDARD,DECATUR,GA,PRIMARY,33.77,-84.29,Decatur,682652809,
30034,STANDARD,DECATUR,GA,PRIMARY,33.77,-84.29,Decatur,624211562,
30035,STANDARD,DECATUR,GA,PRIMARY,33.77,-84.29,Decatur,251456916,
30036,PO BOX,DECATUR,GA,PRIMARY,33.77,-84.29,Decatur,15649860,
30037,PO BOX,DECATUR,GA,PRIMARY,33.77,-84.29,Decatur,15205097,
30535,STANDARD,DEMOREST,GA,PRIMARY,34.56,-83.54,Demorest,90861639,
30544,PO BOX,HABERSHAM,GA,PRIMARY,34.56,-83.54,Habersham,,
30634,STANDARD,DEWY ROSE,GA,PRIMARY,34.16,-82.95,Dewy Rose,25586062,
30537,STANDARD,DILLARD,GA,PRIMARY,34.97,-83.38,Dillard,11532754,
30133,PO BOX,DOUGLASVILLE,GA,PRIMARY,33.74,-84.74,Douglasville,15697062,
30134,STANDARD,DOUGLASVILLE,GA,PRIMARY,33.74,-84.74,Douglasville,632301081,
30135,STANDARD,DOUGLASVILLE,GA,PRIMARY,33.74,-84.74,Douglasville,1114284443,
30154,PO BOX,DOUGLASVILLE,GA,PRIMARY,33.74,-84.74,Douglasville,13756664,
30026,PO BOX,NORTH METRO,GA,PRIMARY,34.00,-84.15,North Metro,,
30029,PO BOX,NORTH METRO,GA,PRIMARY,34.00,-84.15,North Metro,,
30095,PO BOX,DULUTH,GA,PRIMARY,34.00,-84.15,Duluth,14630922,
30096,STANDARD,DULUTH,GA,PRIMARY,34.00,-84.15,Duluth,1106731933,
30097,STANDARD,DULUTH,GA,PRIMARY,34.00,-84.15,Duluth,1428433221,
30098,UNIQUE,DULUTH,GA,PRIMARY,34.00,-84.15,Duluth,,
30099,UNIQUE,DULUTH,GA,PRIMARY,34.00,-84.15,Duluth,,
30538,STANDARD,EASTANOLLEE,GA,PRIMARY,34.49,-83.25,Eastanollee,34975431,
30539,STANDARD,EAST ELLIJAY,GA,PRIMARY,34.68,-84.47,East Ellijay,16989212,
30635,STANDARD,ELBERTON,GA,PRIMARY,34.10,-82.86,Elberton,173775628,
30294,STANDARD,ELLENWOOD,GA,PRIMARY,33.63,-84.26,Ellenwood,639132667,
30536,STANDARD,ELLIJAY,GA,PRIMARY,34.66,-84.33,Ellijay,80365358,"no NWS data, "
30540,STANDARD,ELLIJAY,GA,PRIMARY,34.69,-84.48,Ellijay,184943908,
30137,STANDARD,EMERSON,GA,PRIMARY,34.13,-84.73,Emerson,22592653,
30541,STANDARD,EPWORTH,GA,PRIMARY,34.92,-84.51,Epworth,18594008,
30138,PO BOX,ESOM HILL,GA,PRIMARY,33.93,-85.37,Esom Hill,,
30212,PO BOX,EXPERIMENT,GA,PRIMARY,33.27,-84.27,Experiment,6539032,
30213,STANDARD,FAIRBURN,GA,PRIMARY,33.56,-84.58,Fairburn,500354976,
30139,STANDARD,FAIRMOUNT,GA,PRIMARY,34.44,-84.70,Fairmount,51448690,
30638,PO BOX,FARMINGTON,GA,PRIMARY,33.81,-83.40,Farmington,,
30214,STANDARD,FAYETTEVILLE,GA,PRIMARY,33.44,-84.46,Fayetteville,482245974,
30215,STANDARD,FAYETTEVILLE,GA,PRIMARY,33.44,-84.46,Fayetteville,856460471,
30269,STANDARD,PEACHTREE CITY,GA,PRIMARY,33.39,-84.56,Peachtree City,1003864377,
30270,UNIQUE,PEACHTREE CITY,GA,PRIMARY,33.40,-84.60,Peachtree City,,"no NWS data, "
31169,UNIQUE,PEACHTREE CITY,GA,PRIMARY,33.38,-84.79,Peachtree City,,"no NWS data, "
30140,PO BOX,FELTON,GA,PRIMARY,33.88,-85.21,Felton,,
30216,STANDARD,FLOVILLA,GA,PRIMARY,33.25,-83.89,Flovilla,23695007,
30542,STANDARD,FLOWERY BRANCH,GA,PRIMARY,34.18,-83.92,Flowery Branch,614664381,
30297,STANDARD,FOREST PARK,GA,PRIMARY,33.61,-84.35,Forest Park,233842567,
30298,PO BOX,FOREST PARK,GA,PRIMARY,33.61,-84.35,Forest Park,9156345,
30217,STANDARD,FRANKLIN,GA,PRIMARY,33.28,-85.09,Franklin,103538528,
30219,PO BOX,GLENN,GA,PRIMARY,33.28,-85.12,Glenn,,
30639,PO BOX,FRANKLIN SPRINGS,GA,PRIMARY,34.28,-83.14,Franklin Springs,,
30501,STANDARD,GAINESVILLE,GA,PRIMARY,34.29,-83.83,Gainesville,294276120,
30503,PO BOX,GAINESVILLE,GA,PRIMARY,34.29,-83.83,Gainesville,37276672,
30504,STANDARD,GAINESVILLE,GA,PRIMARY,34.29,-83.83,Gainesville,271486984,
30506,STANDARD,GAINESVILLE,GA,PRIMARY,34.29,-83.83,Gainesville,785653984,
30507,STANDARD,GAINESVILLE,GA,PRIMARY,34.29,-83.83,Gainesville,309443249,
30218,STANDARD,GAY,GA,PRIMARY,33.09,-84.57,Gay,27600284,
30543,STANDARD,GILLSVILLE,GA,PRIMARY,34.31,-83.63,Gillsville,54797815,
30641,STANDARD,GOOD HOPE,GA,PRIMARY,33.78,-83.60,Good Hope,27211571,
30220,STANDARD,GRANTVILLE,GA,PRIMARY,33.23,-84.82,Grantville,68039459,
30017,STANDARD,GRAYSON,GA,PRIMARY,33.89,-83.95,Grayson,437919216,
30642,STANDARD,GREENSBORO,GA,PRIMARY,33.57,-83.18,Greensboro,194319248,
30222,STANDARD,GREENVILLE,GA,PRIMARY,33.02,-84.71,Greenville,45090711,
30223,STANDARD,GRIFFIN,GA,PRIMARY,33.24,-84.27,Griffin,377307793,
30224,STANDARD,GRIFFIN,GA,PRIMARY,33.24,-84.27,Griffin,350041103,
30228,STANDARD,HAMPTON,GA,PRIMARY,33.38,-84.28,Hampton,573465057,
30229,PO BOX,HARALSON,GA,PRIMARY,33.22,-84.57,Haralson,,
30643,STANDARD,HARTWELL,GA,PRIMARY,34.35,-82.93,Hartwell,168751684,
30545,STANDARD,HELEN,GA,PRIMARY,34.70,-83.72,Helen,11793322,
30546,STANDARD,HIAWASSEE,GA,PRIMARY,34.94,-83.75,Hiawassee,66881414,
30645,PO BOX,HIGH SHOALS,GA,PRIMARY,33.81,-83.50,High Shoals,,
30141,STANDARD,HIRAM,GA,PRIMARY,33.86,-84.77,Hiram,397277797,
30230,STANDARD,HOGANSVILLE,GA,PRIMARY,33.16,-84.90,Hogansville,99881186,
30142,PO BOX,HOLLY SPRINGS,GA,PRIMARY,34.17,-84.49,Holly Springs,,
30547,STANDARD,HOMER,GA,PRIMARY,34.33,-83.49,Homer,41056174,
30548,STANDARD,HOSCHTON,GA,PRIMARY,34.09,-83.76,Hoschton,321298972,
30646,STANDARD,HULL,GA,PRIMARY,34.01,-83.29,Hull,88148426,
30647,PO BOX,ILA,GA,PRIMARY,34.17,-83.29,Ila,8140291,
30233,STANDARD,JACKSON,GA,PRIMARY,33.29,-83.96,Jackson,302153666,
30143,STANDARD,JASPER,GA,PRIMARY,34.46,-84.42,Jasper,345149639,
30549,STANDARD,JEFFERSON,GA,PRIMARY,34.13,-83.59,Jefferson,353565296,
30234,STANDARD,JENKINSBURG,GA,PRIMARY,33.32,-84.03,Jenkinsburg,28062344,
30018,PO BOX,JERSEY,GA,PRIMARY,33.71,-83.80,Jersey,,
30236,STANDARD,JONESBORO,GA,PRIMARY,33.52,-84.35,Jonesboro,648677762,
30237,PO BOX,JONESBORO,GA,PRIMARY,33.52,-84.35,Jonesboro,18908439,
30238,STANDARD,JONESBORO,GA,PRIMARY,33.52,-84.35,Jonesboro,457131344,
30144,STANDARD,KENNESAW,GA,PRIMARY,34.02,-84.61,Kennesaw,948599536,
30152,STANDARD,KENNESAW,GA,PRIMARY,34.02,-84.61,Kennesaw,1107231532,
30156,PO BOX,KENNESAW,GA,PRIMARY,33.99,-84.65,Kennesaw,15618680,"no NWS data, "
30160,PO BOX,KENNESAW,GA,PRIMARY,33.99,-84.65,Kennesaw,,"no NWS data, "
31144,UNIQUE,KENNESAW,GA,PRIMARY,34.02,-84.61,Kennesaw,,"no NWS data, "
30145,STANDARD,KINGSTON,GA,PRIMARY,34.23,-84.94,Kingston,128870295,
30240,STANDARD,LAGRANGE,GA,PRIMARY,33.03,-84.98,Lagrange,436204841,
30241,STANDARD,LAGRANGE,GA,PRIMARY,33.03,-84.98,Lagrange,282897258,
30261,PO BOX,LAGRANGE,GA,PRIMARY,33.03,-84.98,Lagrange,,
30552,STANDARD,LAKEMONT,GA,PRIMARY,34.78,-83.41,Lakemont,14622535,
30553,STANDARD,LAVONIA,GA,PRIMARY,34.43,-83.10,Lavonia,80471848,
30042,PO BOX,LAWRENCEVILLE,GA,PRIMARY,33.94,-83.99,Lawrenceville,14356006,
30043,STANDARD,LAWRENCEVILLE,GA,PRIMARY,33.94,-83.99,Lawrenceville,1502398794,
30044,STANDARD,LAWRENCEVILLE,GA,PRIMARY,33.94,-83.99,Lawrenceville,1229572821,
30045,STANDARD,LAWRENCEVILLE,GA,PRIMARY,33.94,-83.99,Lawrenceville,991565892,
30046,STANDARD,LAWRENCEVILLE,GA,PRIMARY,33.94,-83.99,Lawrenceville,45835984,
30049,PO BOX,LAWRENCEVILLE,GA,PRIMARY,33.64,-84.26,Lawrenceville,15313116,"no NWS data, "
30146,PO BOX,LEBANON,GA,PRIMARY,34.21,-84.44,Lebanon,,
30648,STANDARD,LEXINGTON,GA,PRIMARY,33.87,-83.11,Lexington,34491413,
30047,STANDARD,LILBURN,GA,PRIMARY,33.88,-84.13,Lilburn,1101518688,
30048,PO BOX,LILBURN,GA,PRIMARY,33.88,-84.13,Lilburn,19686332,
30147,STANDARD,LINDALE,GA,PRIMARY,34.18,-85.18,Lindale,55977151,
30122,STANDARD,LITHIA SPRINGS,GA,PRIMARY,33.77,-84.64,Lithia Springs,325752947,
30038,STANDARD,LITHONIA,GA,PRIMARY,33.71,-84.10,Lithonia,560542732,
30058,STANDARD,LITHONIA,GA,PRIMARY,33.71,-84.10,Lithonia,739679135,
30248,STANDARD,LOCUST GROVE,GA,PRIMARY,33.34,-84.10,Locust Grove,396489236,
30052,STANDARD,LOGANVILLE,GA,PRIMARY,33.83,-83.89,Loganville,1046563274,
30250,PO BOX,LOVEJOY,GA,PRIMARY,33.43,-84.31,Lovejoy,,
30554,STANDARD,LULA,GA,PRIMARY,34.39,-83.66,Lula,106110848,
30251,STANDARD,LUTHERSVILLE,GA,PRIMARY,33.20,-84.74,Luthersville,27837028,
30555,STANDARD,MC CAYSVILLE,GA,PRIMARY,34.98,-84.37,Mc Caysville,20558492,
30252,STANDARD,MCDONOUGH,GA,PRIMARY,33.45,-84.14,Mcdonough,794218374,
30253,STANDARD,MCDONOUGH,GA,PRIMARY,33.45,-84.14,Mcdonough,871523151,
30126,STANDARD,MABLETON,GA,PRIMARY,33.81,-84.56,Mableton,894112014,
30650,STANDARD,MADISON,GA,PRIMARY,33.57,-83.47,Madison,179453803,
30055,STANDARD,MANSFIELD,GA,PRIMARY,33.51,-83.73,Mansfield,51930005,
30148,STANDARD,MARBLE HILL,GA,PRIMARY,34.42,-84.34,Marble Hill,9384895,
30006,PO BOX,MARIETTA,GA,PRIMARY,33.95,-84.54,Marietta,19105420,
30007,PO BOX,MARIETTA,GA,PRIMARY,33.95,-84.54,Marietta,,
30008,STANDARD,MARIETTA,GA,PRIMARY,33.95,-84.54,Marietta,367217309,
30060,STANDARD,MARIETTA,GA,PRIMARY,33.95,-84.54,Marietta,371188649,
30061,PO BOX,MARIETTA,GA,PRIMARY,33.95,-84.54,Marietta,22139315,
30062,STANDARD,MARIETTA,GA,PRIMARY,33.95,-84.54,Marietta,1769445274,
30063,UNIQUE,MARIETTA,GA,PRIMARY,33.95,-84.54,Marietta,,
30064,STANDARD,MARIETTA,GA,PRIMARY,33.95,-84.54,Marietta,1165135577,
30065,PO BOX,MARIETTA,GA,PRIMARY,33.95,-84.54,Marietta,10632585,
30066,STANDARD,MARIETTA,GA,PRIMARY,33.95,-84.54,Marietta,1357866092,
30067,STANDARD,MARIETTA,GA,PRIMARY,33.95,-84.54,Marietta,1039583234,
30068,STANDARD,MARIETTA,GA,PRIMARY,33.95,-84.54,Marietta,1156658958,
30069,UNIQUE,MARIETTA,GA,PRIMARY,33.95,-84.54,Marietta,,
30090,STANDARD,MARIETTA,GA,PRIMARY,33.95,-84.54,Marietta,,
30557,STANDARD,MARTIN,GA,PRIMARY,34.48,-83.18,Martin,51612749,
30558,STANDARD,MAYSVILLE,GA,PRIMARY,34.25,-83.55,Maysville,65420148,
30256,STANDARD,MEANSVILLE,GA,PRIMARY,33.04,-84.30,Meansville,37964354,
30257,STANDARD,MILNER,GA,PRIMARY,33.11,-84.19,Milner,54883831,
30559,STANDARD,MINERAL BLUFF,GA,PRIMARY,34.91,-84.27,Mineral Bluff,37007596,
30258,STANDARD,MOLENA,GA,PRIMARY,33.01,-84.50,Molena,30798952,
30655,STANDARD,MONROE,GA,PRIMARY,33.79,-83.71,Monroe,329109912,
30656,STANDARD,MONROE,GA,PRIMARY,33.79,-83.71,Monroe,247525304,
30259,STANDARD,MORELAND,GA,PRIMARY,33.28,-84.77,Moreland,52859970,
30560,STANDARD,MORGANTON,GA,PRIMARY,34.87,-84.24,Morganton,39755162,
30260,STANDARD,MORROW,GA,PRIMARY,33.57,-84.34,Morrow,265705063,
30287,PO BOX,MORROW,GA,PRIMARY,33.57,-84.34,Morrow,,
30562,PO BOX,MOUNTAIN CITY,GA,PRIMARY,34.91,-83.38,Mountain City,9387880,
30563,STANDARD,MOUNT AIRY,GA,PRIMARY,34.51,-83.50,Mount Airy,72676015,
30150,PO BOX,MOUNT ZION,GA,PRIMARY,33.63,-85.18,Mount Zion,,
30564,STANDARD,MURRAYVILLE,GA,PRIMARY,34.44,-83.89,Murrayville,67839789,
30151,PO BOX,NELSON,GA,PRIMARY,34.38,-84.37,Nelson,,
30056,STANDARD,NEWBORN,GA,PRIMARY,33.51,-83.69,Newborn,37048306,
30263,STANDARD,NEWNAN,GA,PRIMARY,33.37,-84.78,Newnan,825393015,
30264,PO BOX,NEWNAN,GA,PRIMARY,33.37,-84.78,Newnan,13289496,
30265,STANDARD,NEWNAN,GA,PRIMARY,33.37,-84.78,Newnan,687020318,
30271,PO BOX,NEWNAN,GA,PRIMARY,33.37,-84.78,Newnan,17503903,
30565,STANDARD,NICHOLSON,GA,PRIMARY,34.11,-83.43,Nicholson,63114866,
30003,PO BOX,NORCROSS,GA,PRIMARY,33.94,-84.20,Norcross,7721994,
30010,PO BOX,NORCROSS,GA,PRIMARY,33.94,-84.20,Norcross,18979146,
30071,STANDARD,NORCROSS,GA,PRIMARY,33.94,-84.20,Norcross,295300119,
30091,PO BOX,NORCROSS,GA,PRIMARY,33.94,-84.20,Norcross,13733826,
30092,STANDARD,NORCROSS,GA,PRIMARY,33.94,-84.20,Norcross,858478494,
30093,STANDARD,NORCROSS,GA,PRIMARY,33.94,-84.20,Norcross,437019260,
30502,PO BOX,CHESTNUT MOUNTAIN,GA,PRIMARY,34.19,-83.85,Chestnut Mountain,,
30566,STANDARD,OAKWOOD,GA,PRIMARY,34.23,-83.88,Oakwood,119917038,
30266,PO BOX,ORCHARD HILL,GA,PRIMARY,33.18,-84.21,Orchard Hill,,
30054,STANDARD,OXFORD,GA,PRIMARY,33.62,-83.87,Oxford,187696977,
30268,STANDARD,PALMETTO,GA,PRIMARY,33.52,-84.66,Palmetto,133253999,
30567,STANDARD,PENDERGRASS,GA,PRIMARY,34.16,-83.67,Pendergrass,48713516,
30072,PO BOX,PINE LAKE,GA,PRIMARY,33.79,-84.20,Pine Lake,22208353,
30070,PO BOX,PORTERDALE,GA,PRIMARY,33.57,-83.89,Porterdale,10177910,
30127,STANDARD,POWDER SPRINGS,GA,PRIMARY,33.86,-84.68,Powder Springs,1209384578,
30568,STANDARD,RABUN GAP,GA,PRIMARY,34.95,-83.39,Rabun Gap,20563924,
30660,STANDARD,RAYLE,GA,PRIMARY,33.79,-82.90,Rayle,9812147,
30074,PO BOX,REDAN,GA,PRIMARY,33.73,-84.15,Redan,8029621,
30272,PO BOX,RED OAK,GA,PRIMARY,33.62,-84.53,Red Oak,7252773,
30273,STANDARD,REX,GA,PRIMARY,33.58,-84.27,Rex,236160092,
30274,STANDARD,RIVERDALE,GA,PRIMARY,33.56,-84.40,Riverdale,364331678,
30296,STANDARD,RIVERDALE,GA,PRIMARY,33.56,-84.40,Riverdale,386770948,
30153,STANDARD,ROCKMART,GA,PRIMARY,34.00,-85.04,Rockmart,235743491,
30149,PO BOX,MOUNT BERRY,GA,PRIMARY,34.28,-85.18,Mount Berry,,
30161,STANDARD,ROME,GA,PRIMARY,34.26,-85.18,Rome,442257879,
30162,PO BOX,ROME,GA,PRIMARY,34.26,-85.18,Rome,18836970,
30163,PO BOX,ROME,GA,PRIMARY,34.26,-85.18,Rome,,
30164,PO BOX,ROME,GA,PRIMARY,34.26,-85.18,Rome,10567505,
30165,STANDARD,ROME,GA,PRIMARY,34.26,-85.18,Rome,495479210,
30170,STANDARD,ROOPVILLE,GA,PRIMARY,33.45,-85.13,Roopville,41302922,
30075,STANDARD,ROSWELL,GA,PRIMARY,34.03,-84.35,Roswell,1843240588,
30076,STANDARD,ROSWELL,GA,PRIMARY,34.03,-84.35,Roswell,1087537165,
30077,PO BOX,ROSWELL,GA,PRIMARY,34.03,-84.35,Roswell,14962503,
30662,STANDARD,ROYSTON,GA,PRIMARY,34.28,-83.10,Royston,84220858,
30663,STANDARD,RUTLEDGE,GA,PRIMARY,33.62,-83.61,Rutledge,39897948,
30171,STANDARD,RYDAL,GA,PRIMARY,34.37,-84.70,Rydal,53585603,
30275,PO BOX,SARGENT,GA,PRIMARY,33.41,-84.91,Sargent,,
30571,STANDARD,SAUTEE NACOOCHEE,GA,PRIMARY,34.74,-83.71,Sautee Nacoochee,35532510,
30079,STANDARD,SCOTTDALE,GA,PRIMARY,33.79,-84.26,Scottdale,46449253,
30276,STANDARD,SENOIA,GA,PRIMARY,33.31,-84.55,Senoia,253123898,
30172,PO BOX,SHANNON,GA,PRIMARY,34.33,-85.08,Shannon,11388468,
30664,PO BOX,SHARON,GA,PRIMARY,33.55,-82.79,Sharon,,
30277,STANDARD,SHARPSBURG,GA,PRIMARY,33.34,-84.64,Sharpsburg,450059229,
30665,PO BOX,SILOAM,GA,PRIMARY,33.53,-83.08,Siloam,,
30173,STANDARD,SILVER CREEK,GA,PRIMARY,34.13,-85.13,Silver Creek,94920154,
30080,STANDARD,SMYRNA,GA,PRIMARY,33.86,-84.51,Smyrna,1199926602,
30081,PO BOX,SMYRNA,GA,PRIMARY,33.86,-84.51,Smyrna,19094076,
30082,STANDARD,SMYRNA,GA,PRIMARY,33.86,-84.51,Smyrna,653088075,
30039,STANDARD,SNELLVILLE,GA,PRIMARY,33.85,-84.00,Snellville,728489587,
30078,STANDARD,SNELLVILLE,GA,PRIMARY,33.85,-84.00,Snellville,675007492,
30025,STANDARD,SOCIAL CIRCLE,GA,PRIMARY,33.65,-83.71,Social Circle,151352840,
30666,STANDARD,STATHAM,GA,PRIMARY,33.96,-83.59,Statham,128762663,
30667,STANDARD,STEPHENS,GA,PRIMARY,33.77,-83.10,Stephens,8235443,
30671,PO BOX,MAXEYS,GA,PRIMARY,33.75,-83.17,Maxeys,,
30281,STANDARD,STOCKBRIDGE,GA,PRIMARY,33.54,-84.24,Stockbridge,1079969125,
30083,STANDARD,STONE MOUNTAIN,GA,PRIMARY,33.80,-84.17,Stone Mountain,641302310,
30086,PO BOX,STONE MOUNTAIN,GA,PRIMARY,33.80,-84.17,Stone Mountain,19936455,
30087,STANDARD,STONE MOUNTAIN,GA,PRIMARY,33.80,-84.17,Stone Mountain,760489426,
30088,STANDARD,STONE MOUNTAIN,GA,PRIMARY,33.80,-84.17,Stone Mountain,355784527,
30572,STANDARD,SUCHES,GA,PRIMARY,34.73,-84.06,Suches,9531594,
30284,PO BOX,SUNNY SIDE,GA,PRIMARY,33.34,-84.29,Sunny Side,,
30024,STANDARD,SUWANEE,GA,PRIMARY,34.05,-84.07,Suwanee,1971018916,
30175,STANDARD,TALKING ROCK,GA,PRIMARY,34.50,-84.50,Talking Rock,74264784,
30176,STANDARD,TALLAPOOSA,GA,PRIMARY,33.75,-85.29,Tallapoosa,79933661,
30573,PO BOX,TALLULAH FALLS,GA,PRIMARY,34.72,-83.38,Tallulah Falls,,
30575,STANDARD,TALMO,GA,PRIMARY,34.18,-83.71,Talmo,21382560,
30177,STANDARD,TATE,GA,PRIMARY,34.42,-84.29,Tate,9179503,
30178,STANDARD,TAYLORSVILLE,GA,PRIMARY,34.08,-84.98,Taylorsville,55727871,
30179,STANDARD,TEMPLE,GA,PRIMARY,33.73,-85.03,Temple,238864667,
30285,STANDARD,THE ROCK,GA,PRIMARY,32.96,-84.24,The Rock,9906994,
30286,STANDARD,THOMASTON,GA,PRIMARY,32.89,-84.32,Thomaston,264020029,
30576,STANDARD,TIGER,GA,PRIMARY,34.84,-83.43,Tiger,27675542,
30668,STANDARD,TIGNALL,GA,PRIMARY,33.86,-82.74,Tignall,16709773,
30577,STANDARD,TOCCOA,GA,PRIMARY,34.57,-83.32,Toccoa,248224619,
30598,PO BOX,TOCCOA FALLS,GA,PRIMARY,34.57,-83.32,Toccoa Falls,,
30084,STANDARD,TUCKER,GA,PRIMARY,33.85,-84.22,Tucker,655660669,
30085,PO BOX,TUCKER,GA,PRIMARY,33.85,-84.22,Tucker,16447592,
30289,PO BOX,TURIN,GA,PRIMARY,33.32,-84.63,Turin,,
30580,PO BOX,TURNERVILLE,GA,PRIMARY,34.68,-83.42,Turnerville,,
30290,STANDARD,TYRONE,GA,PRIMARY,33.46,-84.59,Tyrone,240067917,
30291,STANDARD,UNION CITY,GA,PRIMARY,33.57,-84.54,Union City,243963204,
30669,STANDARD,UNION POINT,GA,PRIMARY,33.61,-83.07,Union Point,31454720,
30180,STANDARD,VILLA RICA,GA,PRIMARY,33.73,-84.92,Villa Rica,562492708,
30182,STANDARD,WACO,GA,PRIMARY,33.70,-85.18,Waco,33930108,
30183,STANDARD,WALESKA,GA,PRIMARY,34.31,-84.55,Waleska,83856458,
30673,STANDARD,WASHINGTON,GA,PRIMARY,33.73,-82.74,Washington,84370926,
30677,STANDARD,WATKINSVILLE,GA,PRIMARY,33.86,-83.40,Watkinsville,339000189,
30184,STANDARD,WHITE,GA,PRIMARY,34.28,-84.74,White,126093142,
30678,STANDARD,WHITE PLAINS,GA,PRIMARY,33.47,-83.03,White Plains,15029735,
30185,STANDARD,WHITESBURG,GA,PRIMARY,33.49,-84.91,Whitesburg,59766844,
30581,PO BOX,WILEY,GA,PRIMARY,34.82,-83.45,Wiley,,
30292,STANDARD,WILLIAMSON,GA,PRIMARY,33.18,-84.36,Williamson,90896289,
30680,STANDARD,WINDER,GA,PRIMARY,33.99,-83.72,Winder,535540116,
30187,STANDARD,WINSTON,GA,PRIMARY,33.65,-84.86,Winston,167297709,
30683,STANDARD,WINTERVILLE,GA,PRIMARY,33.96,-83.28,Winterville,100543309,
30293,STANDARD,WOODBURY,GA,PRIMARY,32.98,-84.58,Woodbury,32501976,
30188,STANDARD,WOODSTOCK,GA,PRIMARY,34.10,-84.51,Woodstock,1173642244,
30189,STANDARD,WOODSTOCK,GA,PRIMARY,34.10,-84.51,Woodstock,882055221,
30582,STANDARD,YOUNG HARRIS,GA,PRIMARY,34.93,-83.84,Young Harris,43812371,
30295,STANDARD,ZEBULON,GA,PRIMARY,33.10,-84.34,Zebulon,67194119,
30073,STANDARD,DECATUR,GA,PRIMARY,33.70,-84.25,Decatur,,Converted Decommisioned Zipcodes;  Historical ZipCodeType from various website
30347,STANDARD,ATLANTA,GA,PRIMARY,33.82,-84.33,Atlanta,,Converted Decommisioned Zipcodes
30376,STANDARD,ATLANTA,GA,PRIMARY,33.81,-84.35,Atlanta,,Converted Decommisioned Zipcodes
30379,STANDARD,ATLANTA,GA,PRIMARY,33.74,-84.38,Atlanta,,Converted Decommisioned Zipcodes
30386,UNIQUE,ATLANTA,GA,PRIMARY,33.64,-84.39,Atlanta,,Converted Decommisioned Zipcodes
30387,UNIQUE,ATLANTA,GA,PRIMARY,33.74,-84.38,Atlanta,,Converted Decommisioned Zipcodes
30389,UNIQUE,ATLANTA,GA,PRIMARY,33.74,-84.38,Atlanta,,Converted Decommisioned Zipcodes
30390,UNIQUE,ATLANTA,GA,PRIMARY,33.74,-84.38,Atlanta,,Converted Decommisioned Zipcodes
30399,UNIQUE,ATLANTA,GA,PRIMARY,33.74,-84.38,Atlanta,,Converted Decommisioned Zipcodes
30596,UNIQUE,ALTO,GA,PRIMARY,34.44,-83.59,Alto,,Converted Decommisioned Zipcodes
30911,STANDARD,AUGUSTA,GA,PRIMARY,33.47,-81.96,Augusta,,Converted Decommisioned Zipcodes
30913,STANDARD,AUGUSTA,GA,PRIMARY,33.47,-81.96,Augusta,,Converted Decommisioned Zipcodes
31120,STANDARD,ATLANTA,GA,PRIMARY,33.74,-84.38,Atlanta,,Converted Decommisioned Zipcodes;  Historical ZipCodeType from various website
31191,UNIQUE,ATLANTA,GA,PRIMARY,33.79,-84.44,Atlanta,,Converted Decommisioned Zipcodes
31197,UNIQUE,ATLANTA,GA,PRIMARY,33.74,-84.38,Atlanta,,Converted Decommisioned Zipcodes
31198,UNIQUE,ATLANTA,GA,PRIMARY,33.74,-84.38,Atlanta,,Converted Decommisioned Zipcodes
31199,UNIQUE,ATLANTA,GA,PRIMARY,33.74,-84.38,Atlanta,,Converted Decommisioned Zipcodes
